"CWNS_ID","FACILITY_ID","LOCATION_TYPE","LATITUDE","LONGITUDE","DATUM","ADDRESS","ADDRESS_2","CITY","STATE_CODE","ZIP_CODE","COUNTY_FIPS","COUNTY_NAME"
"06003019001",1175386,"Point","36.489558","-121.470165","NAD83","Short Rd","","Soledad","CA","93960","",""
"06009004001",1176034,"Point","33.367596","-117.258904","NAD83","1425 South Alturas Rd","","Fallbrook","CA","92028","",""
"06003016001",1175384,"Point","34.612239","-120.203366","NAD83","79 Industrial Way","","Buellton","CA","93427","",""
"06003028001",1175395,"Point","35.138319","-120.632821","NAD83","Frady Ln","","Pismo Beach","CA","93449","",""
"06005047001",1175567,"Point","35.888433","-119.267707","NAD83","N Church Rd","","Earlimart","CA","93219","",""
"06005108001",1175640,"Point","37.619602","-120.874586","NAD83","6700 Leedom Rd","Charles St. and Leedom Rd.","Hughson","CA","95326","",""
"06005551001",1175825,"Point","38.731657","-120.847517","NAD83","2300 Coolwater Creek Rd","","Placerville","CA","95667","",""
"06005033001",1238815,"Point","39.1697","-122.1536","NAD83","700 B STREET","","Williams","CA","95987","",""
"06028078001",3514416,"Point","33.679676","-117.873688","NAD83","290 Paularino Ave","","Costa Mesa","CA","92626","",""
"06008020003",3518636,"Point","33.821242","-117.509020","NAD83","3997 Temescal Canyon Rd","","Corona","CA","92883","",""
"06004012500",3531736,"Point","34.1477","-118.1441","NAD83","100 Garfield Ave. North","","Pasadena","CA","91101","",""
"06001014001",433503,"Point","38.9752","-123.0994","NAD83","13101 nokomis road","","Hopland","CA","95449","",""
"06009014001",1176045,"Point","33.086782","-117.266248","NAD83","1960 La Costa Ave","","Carlsbad","CA","92009","",""
"06000000162",3609020,"City","33.844703","-118.386794","NAD83","","","New Castle","CA","90277","",""
"06000000161",3609019,"Point","33.844707","-118.386735","NAD83","244 N Pacific Coast Hwy","","Redondo Beach","CA","90277","",""
"06002035001",1175293,"Point","37.319595","-122.031326","NAD83","","","Cupertino","CA","95014","",""
"06000000163",3609024,"City","37.625092","-122.413337","NAD83","","","Silt","CA","94066","",""
"06000000166",3609120,"City","32.767646","-117.022076","NAD83","","","Temple City","CA","","",""
"06000000167",3609122,"Point","32.764759","-117.021904","NAD83","4731 Date Ave","","La Mesa","CA","91942","",""
"06008073001",1176019,"Point","33.8628356","-117.8278821","NAD83","1717 E Miraloma Ave","","Placentia","CA","92870","",""
"06000000175",3609168,"City","36.068805","-119.021416","NAD83","","","Log Lane Village","CA","","",""
"06000000133",3608440,"Point","40.580845","-122.344437","NAD83","1804 Shady Ln","","Redding","CA","96002","",""
"06002016001",1175275,"Point","37.4849159","-122.2273204","NAD83","1017 Middlefield Road","","Redwood City","CA","94063","",""
"06008045001",1175999,"Point","33.917562","-117.888730","NAD83","1 Civic Center Cir","","Brea","CA","92821","",""
"06000000178",3609216,"City","32.950487","-117.039413","NAD83","","","Manassa","CA","","",""
"06000000179",3609238,"City","37.912784","-122.056732","NAD83","","","Marshall","CA","","",""
"06012001032",2856163,"City","37.915493","-122.309074","NAD83","","","Ontario","CA","","",""
"06000000185",3609289,"City","34.419514","-119.698523","NAD83","","","Villa Grove","CA","93101","",""
"06000000186",3609295,"City","37.960982","-122.338600","NAD83","","","Two Buttes","CA","","",""
"06000000188",3609335,"City","38.248427","-122.075958","NAD83","","","Paskenta","CA","","",""
"06001010005",1175180,"Point","40.766290","-124.195290","NAD83","4301 Hilfiker Ln","","Eureka","CA","95501","",""
"06002109001",1175348,"Point","37.6894","-121.8075","NAD83","101 W. JACK LONDON BLVD.","","Livermore","CA","94551","",""
"06003038001",1175403,"Point","37.1539","-122.1649","NAD83","701 Ocean Street"," Room 410 ","Santa Cruz","CA","95060","",""
"06005249003",1175735,"Point","38.635863","-121.059294","NAD83","1000 Blackstone Pkwy, El Dorado Hills, CA 95762","","El Dorado Hills","CA","95762","",""
"06006011001",1175864,"Point","37.8133","-118.9972","NAD83","Bald Mountain Road","","June Lake","CA","93529","",""
"06001054001",1175220,"Point","41.431755","-122.375035","NAD83","1542 Alameda Weed, CA, 96094","","Weed","CA","96094","",""
"06002021001",1175279,"Point","38.0482","-122.1839","NAD83","END OF CANYON LAKE DRIVE","","Port Costa","CA","94569","",""
"06005162001",1175680,"Point","38.2023","-120.6889","NAD83","675 GOLD OAK ROAD","","San Andreas","CA","95249","",""
"06008010001",1175959,"Point","34.026824","-117.598922","NAD83","2662 E Walnut St","","Ontario","CA","91761","",""
"06009041001",1176079,"Point","33.1802","-117.371","NAD83","1330 S. TAIT STREET","","Oceanside","CA","92054","",""
"06023029001",3378890,"City","36.670622","-121.640625","NAD83","","","Salida","CA","","",""
"06008023005",2942682,"Point","33.639204","-117.923813","NAD83","","","Newport Beach","CA","92603","",""
"06008023006",2942689,"Point","33.674640","-117.886047","NAD83","","","Costa Mesa","CA","92626","",""
"06005239001",1175726,"Point","38.016452","-121.815376","NAD83","","","Antioch","CA","94509","",""
"06000000122",3608176,"Point","33.734762","-117.425909","NAD83","13200 Shotgun Trail","","Corona","CA","92883","",""
"06000000146",3608836,"City","37.4849159","-122.2273204","NAD83","","","Niwot","CA","94063","",""
"06003046001",1175414,"Point","36.1831","-121.5372","NAD83","Pfeiffer Big Sur State Park","","Big Sur","CA","93920","",""
"06005246001",1175732,"Point","36.080078","-119.558887","NAD83","King Avenue and Pueblo Avenue","","Corcoran","CA","93212","",""
"06009025001",1176057,"Point","32.7341","-116.4302","NAD83","5555 Overland Ave MS 0384","","San Diego","CA","92123","",""
"06029041001",3138044,"City","33.196466","-117.380161","NAD83","","","Evergreen","CA","","",""
"06009074002",3334975,"Point","33.541895","-117.607355","NAD83","28793 Ortega Hwy","","San Juan Capistrano","CA","92675","",""
"06000000075",3607083,"Point","33.5065124","-117.6700749","NAD83","","","San Juan Capistrano","CA","92675","",""
"06003029002",1175397,"Point","36.674993","-121.657534","NAD83","200 Lincoln Ave","","Salinas","CA","93901","",""
"06000000080",3607474,"Point","37.432682","-121.943994","NAD83","700 Los Esteros Road","","San Jose","CA","95134","",""
"06000000082",3607552,"Point","33.736974","-116.355257","NAD83","43000 Cook St","","Palm Desert","CA","92211","",""
"06000000081",3607551,"Point","33.771228","-116.256037","NAD83","80609 Avenue 38","","Indio","CA","92203","",""
"06000000083",3607553,"Point","33.640419","-116.128063","NAD83","63-002 Fillmore St","","Thermal","CA","92274","",""
"06000000084",3607554,"City","33.680783","-116.172652","NAD83","","","Ludlow","CA","","",""
"06008038001",1175992,"Point","33.746610","-117.809143","NAD83","","","Tustin","CA","92606","",""
"06008023011",2944164,"Point","33.708347","-118.050156","NAD83","","","Huntington Beach","CA","92649","",""
"06021010005",2902596,"City","40.786001","-124.171944","NAD83","","","Paramount","CA","95501","",""
"06000000093",3607833,"City","34.072569","-118.399100","NAD83","","","Healdsburg","CA","90210","",""
"06008023014",2944225,"Point","33.690067","-117.837982","NAD83","","","Irvine","CA","92614","",""
"06000000097",3607868,"City","33.885166","-118.409615","NAD83","","","Windsor","CA","90266","",""
"06000000102",3607908,"Point","32.877875","-117.198071","NAD83","4950 Eastgate Mall","","San Diego","CA","92121","",""
"06000000089",3607790,"Point","33.692388","-117.944970","NAD83","18700 Ward St","","Fountain Valley","CA","92708","",""
"06000000090",3607791,"Point","33.694200","-117.945442","NAD83","10500 Ellis Ave","","Fountain Valley","CA","92708","",""
"06008060001",1176008,"Point","33.749643","-117.874460","NAD83","Civic Center Plz","","Santa Ana","CA","92701","",""
"06000000100",3607879,"Point","37.902681","-121.601325","NAD83","1601 Discovery Bay Blvd","","Discovery Bay","CA","94505","",""
"06000000108",3607994,"City","33.924044","-117.561049","NAD83","","","De Beque","CA","92860","",""
"06025000001",3522260,"City","37.380942","-120.723031","NAD83","","","Valley Village","CA","95334","",""
"06004009003",1175479,"Point","34.0322","-118.0212","NAD83","1965 SOUTH WORKMAN MILL ROAD","90605","Whittier","CA","90601","",""
"06004010003",1175493,"Point","34.1412","-118.2731","NAD83","4600 COLORADO BLVD","","Los Angeles","CA","90039","",""
"06005245002",1175731,"Point","39.9139","-122.1027","NAD83","25010 Gardiner Ferry Road","","Corning","CA","96021","",""
"06006008001",1175861,"Point","39.339069","-120.128261","NAD83","13720 Butterfield Dr","","Truckee","CA","96161","",""
"06000000112",3608022,"Point","34.699284","-118.138905","NAD83","","","Lancaster","CA","93534","",""
"06000000113",3608023,"City","34.699002","-118.137360","NAD83","","","The Sea Ranch","CA","","",""
"06000000116",3608102,"Point","37.760741","-122.215133","NAD83","5597 Oakport St","","Oakland","CA","94621","",""
"06000000115",3608101,"Point","37.795085","-122.254819","NAD83","225 5th Avenue","","Oakland","CA","94606","",""
"06008010008",410633,"Point","34.102637","-117.438612","NAD83","","","Fontana","CA","92335","",""
"06005122002",1175653,"Point","38.577829","-121.486044","NAD83","","","Sacramento","CA","95814","",""
"06000000078",3607384,"Point","33.837173","-118.341197","NAD83","3031 Torrance Blvd","","Torrance","CA","90503","",""
"06000000120",3608161,"City","33.120300","-117.068253","NAD83","","","Palomar Mountain","CA","","",""
"06002022001",1175280,"Point","38.021286","-121.941719","NAD83","Bailey Rd","","Pittsburg","CA","94565","",""
"06004001001",1175456,"Point","34.146370","-118.247867","NAD83","","","Glendale","CA","91206","",""
"06008005001",1175949,"Point","34.074008","-117.693872","NAD83","5100 Benito St","","Montclair","CA","91763","",""
"06009023001",1176055,"Point","32.740866","-117.032118","NAD83","","","Lemon Grove","CA","91945","",""
"06000000134",3608500,"City","38.547628","-122.816849","NAD83","","","Windham","CA","95492","",""
"06006007001",1175860,"Point","39.2493353","-120.053095","NAD83","875 National Ave","","Tahoe Vista","CA","96148","",""
"06000000138",3608601,"City","35.627721","-120.691166","NAD83","","","Pacific Grove","CA","93446","",""
"06006065001",1175901,"Point","34.096240","-117.716618","NAD83","206 W Bonita Ave","","Claremont","CA","91711","",""
"06000000141",3608717,"City","37.065588","-120.842056","NAD83","","","Wasco","CA","93635","",""
"06009033001",1176072,"Point","33.543112","-117.783480","NAD83","260 Ocean Ave","","Laguna Beach","CA","92651","",""
"06000000143",3608762,"City","34.891845","-117.028427","NAD83","","","Greenfield","CA","","",""
"06009019002",1176051,"Point","33.466103","-117.686920","NAD83","34237 Del Obispo St","","Dana Point","CA","92629","",""
"06000000144",3608801,"City","37.8435212","-122.4771372","NAD83","","","Wolcott","CA","94965","",""
"06001030001",1175198,"Point","38.3876005","-122.7501952","NAD83","Todd Road","","Santa Rosa","CA","95407","",""
"06000000149",3608850,"Point","33.867280","-118.060541","NAD83","12700 Center Court Dr S","","Cerritos","CA","90703","",""
"06000000145",3608834,"Point","34.087346","-117.889856","NAD83","112 E College St","","Covina","CA","91723","",""
"06000000154",3608935,"Point","35.665734","-117.649412","NAD83","Knox Rd","","Ridgecrest","CA","93555","",""
"06009009001",1176040,"Point","33.202822","-117.235794","NAD83","600 Eucalyptus Ave","","Vista","CA","92084","",""
"06005285001",1238823,"Point","40.3855","-122.2672","NAD83","3425 LIVE OAK RD","","Cottonwood","CA","96022","",""
"06003054002",1175423,"Point","37.1693","-122.1537","NAD83","Bear Creek Rd ","","Boulder Creek","CA","95006","",""
"06004009010",1175486,"Point","34.5908","-118.0761","NAD83","39300 30th Street East","","Palmdale","CA","93550","",""
"06005049001",1175569,"Point","36.8592","-120.4553","NAD83","1575 11th street","","Firebaugh","CA","93622","",""
"06005124001",1175655,"Point","37.5222","-121.0964","NAD83","11020 Sun Center Drive","","Rancho Cordova","CA","95670","",""
"06005328001",1175772,"Point","35.9814","-119.2792","NAD83","Adjacent to harmon Field","","Pixley","CA","93256","",""
"06005368001",1175795,"Point","40.1625","-122.2167","NAD83","700 MESSER DRIVE","","Red Bluff","CA","96080-0400","",""
"06008006001",1175950,"Point","33.804110","-117.010317","NAD83","770 North Sanderson Ave","","San Jacinto","CA","92583","",""
"06002030001",1238810,"Point","37.9209","-122.3781","NAD83","601 CANAL BLVD","","Richmond","CA","94804","",""
"06008086001",3380875,"Point","33.7899","-117.4956","NAD83","22646 Temescal Canyon Rd","","Corona","CA","92883","",""
"06001011001",1175181,"Point","40.5911","-124.1578","NAD83","180 DINSMORE DRIVE","","Fortuna","CA","95540","",""
"06003002001",1175373,"Point","34.6151","-120.0756","NAD83","1095 East Meadow Vale","","Santa Ynez","CA","93460","",""
"06005041001",1175561,"Point","39.187861","-122.023387","NAD83","2820 Will S Green Ave","","Colusa","CA","95932","",""
"06005065001",1175586,"Point","37.6137","-121.0118","NAD83","1221 SUTTER AVENUE","","Modesto","CA","95351","",""
"06005177001",1175687,"Point","36.5386","-119.3961","NAD83","6675 Ave 412","","Dinuba","CA","93618","",""
"06009032001",1176070,"Point","33.1052","-117.1114","NAD83","1521 SOUTH HALE AVENUE","","Escondido","CA","92029","",""
"06008026001",1175981,"Point","34.010586","-117.398272","NAD83","2783 Avalon St","","Riverside","CA","92509","",""
"06000000151",3608857,"City","33.868384","-118.062558","NAD83","","","Litchfield","CA","","",""
"06000000158",3608996,"City","37.004883","-121.569986","NAD83","","","Rancho Santa Fe","CA","","",""
"06000000180",3609248,"City","37.455783","-122.204361","NAD83","","","Aguilar","CA","","",""
"06000000200",3609584,"County","37.546483","-122.303581","NAD83","","","","CA","","06081","San Mateo"
"06000000213",3610443,"City","33.824936","-118.036251","NAD83","","","Mission Hills","CA","90720","",""
"06001015001",1175184,"Point","40.943764","-124.121733","NAD83","675 Hiller Road","","Mckinleyville","CA","95519","",""
"06001041001",1175206,"Point","41.747030","-124.201770","NAD83","210 Battery St","277 BATTERY","Crescent City","CA","95531","",""
"06002012001",1175273,"Point","37.4583","-122.1108","NAD83","2501 EMBARCADERO WAY","","Palo Alto","CA","94303","",""
"06002025001",1175283,"Point","37.9971","-122.0697","NAD83","5019 IMHOFF PLACE","","Martinez","CA","94553","",""
"06002063002",1175323,"Point","37.8973607","-122.4660442","NAD83","3700 Paradise Dr","","Belvedere Tiburon","CA","94920","",""
"06003009001",1175378,"Point","36.4189481","-121.3386605","NAD83","34520 Morisoli Rd","","Soledad","CA","93960","",""
"06003068001",1175436,"Point","34.9522","-119.6961","NAD83","5500 HIGHWAY 166","","New Cuyama","CA","93254","",""
"06005022001",1175543,"Point","36.6092","-119.3369","NAD83","1805 Monson Ave","","Orange Cove","CA","93646","",""
"06005243001",1175729,"Point","39.9457","-120.9408","NAD83","900 SPANISH CREEK RD","","Quincy","CA","95971","",""
"06005299001",1175755,"Point","37.2013","-120.9621","NAD83","Woodward Ave","","Hamilton City","CA","95951","",""
"06000000197",3609544,"Point","37.271338","-121.950120","NAD83","1070 Florence Way","","Campbell","CA","95008","",""
"06000000077",3607381,"City","34.2259216","-119.0651197","NAD83","","","La Crescenta","CA","","",""
"06004024001",1175511,"Point","34.237705","-118.967600","NAD83","7385 Santa Rosa Rd","","Camarillo","CA","93012","",""
"06008044001",1175998,"Point","33.823225","-118.037624","NAD83","","","Cypress","CA","90630","",""
"06000000085",3607599,"City","34.275943","-118.742294","NAD83","","","Burlington","CA","","",""
"06002156001",1175366,"Point","37.875776","-122.527739","NAD83","305 Bell Ln","","Mill Valley","CA","94941","",""
"06000000094",3607861,"City","37.620350","-122.487431","NAD83","","","Glade Park","CA","94044","",""
"06006012501",3533076,"Point","34.529470","-117.190304","NAD83","15221 Navajo Rd","","Apple Valley","CA","92307","",""
"06008062001",1176010,"Point","34.101571","-117.279396","NAD83","","","San Bernardino","CA","92346","",""
"06000000117",3608103,"Point","34.145686","-119.183389","NAD83","5700 Perkins Rd","","Oxnard","CA","93033","",""
"06009077001",1176096,"Point","33.561280","-117.701511","NAD83","","","Laguna Beach","CA","92677","",""
"06008058001",1176007,"Point","33.775937","-117.936730","NAD83","","","Garden Grove","CA","92840","",""
"06025043001",2859980,"City","37.123302","-120.256519","NAD83","","","Long Beach","CA","93610","",""
"06000000182",3609282,"City","37.740313","-121.425018","NAD83","","","Newtown","CA","95304","",""
"06000000205",3609670,"City","37.687079","-122.477303","NAD83","","","Moccasin","CA","","",""
"06022175001",3225490,"City","37.763658","-122.246933","NAD83","","","Farmington","CA","","",""
"06000000199",3609569,"County","37.362517","-121.946869","NAD83","","","","CA","","06085","Santa Clara"
"06000000204",3609644,"County","37.945274","-122.552490","NAD83","","","","CA","","06041","Marin"
"06000000065",3606861,"Point","37.534301","-121.067362","NAD83","7007 Jennings Rd","","Modesto","CA","95358","",""
"06000000073",3607081,"Point","33.541126","-117.704108","NAD83","29201 La Paz Rd","","Laguna Niguel","CA","92677","",""
"06000000095",3607863,"City","38.016587","-121.815033","NAD83","","","Frazier Park","CA","","",""
"06000000101",3607883,"City","33.048907","-117.291648","NAD83","","","Palo Cedro","CA","92024","",""
"06000000105",3607961,"Point","34.043236","-117.357845","NAD83","1990 Agua Mansa Road","","Colton","CA","92324","",""
"06000000106",3607985,"Point","34.576850","-118.115773","NAD83","38250 Sierra Highway","","Palmdale","CA","93550","",""
"06008016001",1175967,"Point","33.923189","-117.561007","NAD83","2837 Clark Ave","","Norco","CA","92860","",""
"06009007001",1176038,"Point","32.640314","-117.081299","NAD83","","","Chula Vista","CA","91910","",""
"06000000127",3608300,"City","33.746610","-118.401718","NAD83","","","Moffat","CA","90275","",""
"06000000128",3608301,"City","38.004955","-122.291222","NAD83","","","Kiowa","CA","94564","",""
"06000000129",3608381,"City","38.445522","-121.822586","NAD83","","","Napa","CA","95620","",""
"06000000135",3608519,"City","37.471861","-121.128731","NAD83","","","Hesperus","CA","95363","",""
"06002091001",1175343,"Point","37.518849","-122.278862","NAD83","","","Belmont","CA","94002","",""
"06008023003",2945422,"Point","33.805397","-117.957458","NAD83","","","Stanton","CA","92804","",""
"06009047001",1176085,"Point","33.048961","-117.292271","NAD83","46 Encinitas Blvd","","Encinitas","CA","92024","",""
"06000000103",3607909,"Point","32.722021","-117.125931","NAD83","","","San Diego","CA","92102","",""
"06000000114",3608100,"Point","37.897682","-122.323108","NAD83","2755 Isabel St","","Richmond","CA","94804","",""
"06022039001",3347694,"City","37.602944","-122.395420","NAD83","","","Aspen","CA","94030","",""
"06000000139",3608621,"City","34.096134","-117.716575","NAD83","","","Los Altos","CA","91711","",""
"06000000140",3608711,"Point","36.692098","-119.553738","NAD83","North Ave","","Sanger","CA","93657","",""
"06009043001",1176082,"Point","33.165002","-117.339306","NAD83","","","Carlsbad","CA","92008","",""
"06000000211",3610284,"City","40.578629","-124.263268","NAD83","","","Perris","CA","","",""
"06000000210",3610259,"City","38.2543974","-120.9532072","NAD83","","","La Canada Flintridge","CA","","",""
"06000000212",3610370,"City","34.000020","-117.750778","NAD83","","","Lone Pine","CA","91709","",""
"06008011001",1175962,"Point","34.141149","-117.576563","NAD83","10440 Ashford St","","Rancho Cucamonga","CA","91730","",""
"06000000177",3609215,"Point","32.956825","-117.029114","NAD83","13910 Poway Rd","","Poway","CA","92064","",""
"06009035001",1176074,"Point","33.202355","-117.234507","NAD83","642 Eucalyptus Ave","","Vista","CA","92084","",""
"06000000191",3609403,"County","34.013112","-118.498535","NAD83","","","","CA","","06037","Los Angeles"
"06000000195",3609479,"Point","34.280632","-119.292405","NAD83","542 E Main St","","Ventura","CA","93001","",""
"06000000171",3609136,"Point","37.545224","-122.227492","NAD83","1400 Radio Rd","","Redwood City","CA","94065","",""
"06006018001",1175873,"Point","39.186365","-120.207596","NAD83","368 Alpine Meadows Rd","","Olympic Valley","CA","96146","",""
"06000000206",3609689,"City","37.577780","-122.333450","NAD83","","","June Lake","CA","","",""
"06000000076",3607353,"City","37.981416","-122.021713","NAD83","","","Mariposa","CA","","",""
"06008023002",2945322,"Point","33.834490","-117.892227","NAD83","","","Anaheim","CA","92805","",""
"06024000001",3500317,"City","34.045121","-118.247738","NAD83","","","Warner Springs","CA","","",""
"06000000107",3607986,"City","34.576974","-118.116417","NAD83","","","Grand Junction","CA","","",""
"06025019002",3534816,"City","37.803138","-121.305542","NAD83","","","Torrance","CA","95330","",""
"06005216001",1175710,"Point","38.926297","-121.118088","NAD83","","","Auburn","CA","95603","",""
"06002152001",1175364,"Point","37.908044","-122.550087","NAD83","119 Summit Ave","","Mill Valley","CA","94941","",""
"06009026005",1176061,"Point","33.326127","-117.161980","NAD83","3707 Old Highway 395","","Fallbrook","CA","92028","",""
"06009050001",1176087,"Point","32.671993","-117.105128","NAD83","1243 National City Blvd","","National City","CA","91950","",""
"06008067001",1176013,"Point","33.868705","-118.006210","NAD83","","","Buena Park","CA","90621","",""
"06000000096",3607867,"Point","33.885879","-118.407426","NAD83","500 Manhattan Beach Blvd","","Manhattan Beach","CA","90266","",""
"06000000118",3608104,"City","34.192707","-119.192905","NAD83","","","Gilcrest","CA","","",""
"06005000002",3514618,"Point","38.576085","-121.489220","NAD83","","","Sacramento","CA","95814","",""
"06000000086",3607691,"City","35.156697","-120.667359","NAD83","","","Kremmling","CA","","",""
"06000000126",3608299,"Point","33.747466","-118.399658","NAD83","30940 Hawthorne Boulevard","","Rancho Palos Verdes","CA","90275","",""
"06000000136",3608525,"City","37.516262","-122.283325","NAD83","","","Hacienda Heights","CA","94002","",""
"06000000153",3608861,"Point","33.912665","-116.527905","NAD83","19011 Little Morongo Rd","","Desert Hot Springs","CA","92240","",""
"06005649001",1175839,"Point","38.786940","-121.231384","NAD83","5807 SPRINGVIEW DRIVE,","","Rocklin","CA","95677","",""
"06000000183",3609283,"Point","33.975645","-118.033569","NAD83","","","Whittier","CA","90601","",""
"06000000184",3609284,"Point","33.915871","-118.071613","NAD83","","","Norwalk","CA","90650","",""
"06000000169",3609130,"County","37.787882","-122.391456","NAD83","","","","CA","","06075","San Francisco"
"06009005001",1176036,"Point","32.794860","-116.958990","NAD83","","","El Cajon","CA","92019","",""
"06002028001",1175286,"Point","37.346","-121.9096","NAD83","300 Emory St","","San Jose","CA","95110","",""
"06005082003",1175600,"Point","38.2976","-120.2803","NAD83","423 East St. Charles Street. PO Box 846","","San Andreas","CA","95249","",""
"06005179001",1175689,"Point","37.3375","-120.9858","NAD83","2600 Hills Ferry Road, CA","","Newman","CA","95360","",""
"06007003001",1175910,"Point","33.819927","-116.5267","NAD83","4375 Mesquite Ave","","Palm Springs","CA","92264","",""
"06009015003",1176047,"Point","32.7328","-116.9458","NAD83","2554 Sweetwater Springs","","Spring Valley","CA","91977","",""
"06001036001",1175202,"Point","38.5408","-122.8168","NAD83","8400 WINDSOR ROAD","","Windsor","CA","95492","",""
"06005001001",1175523,"Point","37.777974","-120.866990","NAD83","9700 Liberini Ave","","Oakdale","CA","95361","",""
"06005063001",1175584,"Point","39.2653","-122.1844","NAD83","SECTION 3 T16N R3W, INTERSECTION E. AVE AND S. AVE","","Maxwell","CA","95955","",""
"06009016001",1176048,"Point","33.0065","-117.1988","NAD83","16105 Via De Santa Fe","","Rancho Santa Fe","CA","92024","",""
"06001003001",1175169,"Point","40.717013","-122.933922","NAD83","630 Mountain View Street","","Weaverville","CA","96093","",""
"06001093001",1175240,"Point","40.8528","-124.165","NAD83","1901 Park Street","","Samoa","CA","95521","",""
"06002023001",1175281,"Point","38.0128","-121.8343","NAD83","2500 PITTSBURG-ANTIOCH HWY","","Antioch","CA","94509","",""
"06002082001",1175340,"Point","38.044762","-122.146533","NAD83","614 E 5th St.","","Benicia","CA","94510","",""
"06003080001",1175444,"Point","35.9794","-120.6464","NAD83","Cattlemen Rd","","San Ardo","CA","93450","",""
"06005158001",1175676,"Point","37.761148","-121.138859","NAD83","25100 W River Rd","","Escalon","CA","95320","",""
"06007002001",1175909,"Point","32.8164","-115.5787","NAD83","2255 N La Brucherie Rd","","El Centro","CA","92243","",""
"06008034001",1175989,"Point","33.664247","-117.276134","NAD83","21982 Railroad Canyon Rd","","Lake Elsinore","CA","92532","",""
"06009006001",1176037,"Point","33.553797","-117.719504","NAD83","28303 Alicia Parkway","30290 RANCHO VIEJO ROAD, SAN JUAN CAPISTRANO","Laguna Niguel","CA","92677","",""
"06009019001",1176050,"Point","33.466569","-117.684742","NAD83","34156 Del Obispo St","30290 RANCHO VIEJO ROAD, SAN JUAN CAPISTRANO","Dana Point","CA","92629","",""
"06005004001",1238814,"Point","38.6628","-121.7147","NAD83","42929 COUNTY ROAD 24","","Woodland","CA","95776","",""
"06005360001",1238827,"Point","36.3518803","-119.3521046","NAD83","16716 Ave 168","","Tulare","CA","93274","",""
"06001065001",1175224,"Point","41.5703","-122.8411","NAD83","Island Rd.","","Etna","CA","96027","",""
"06002046001",1175306,"Point","37.6413","-122.4","NAD83","195 BELLE AIR RD","","South San Francisco","CA","94080","",""
"06002113001",1175351,"Point","37.3901","-122.0815","NAD83","500 Castro Street","","Mountain View","CA","94039-7540","",""
"06004009004",1175480,"Point","34.0302","-118.0671","NAD83","301 N ROSEMEAD BLVD","","El Monte","CA","91733","",""
"06004009007",1175483,"Point","34.4127","-118.5393","NAD83","26200 SPRINGBROOK AVE","","Santa Clarita","CA","91350","",""
"06005058001",1175577,"Point","36.3899","-119.2177","NAD83","15180 Ave 324","","Ivanhoe","CA","93235","",""
"06005232001",1175720,"Point","40.6855","-122.391","NAD83","3700 TIBBITS ROAD","","Shasta Lake","CA","96019-9211","",""
"06006021001",1175876,"Point","34.2479","-117.266","NAD83","246 Houston Rd","","Crestline","CA","92325","",""
"06002050002",3514039,"City","38.052746","-122.152991","NAD83","","","Happy Camp","CA","94510","",""
"06026000001",3522996,"Point","38.9414863","-119.96203","NAD83","LAHONTAN","","South Lake Tahoe","CA","96150","",""
"06001040001",1175205,"Point","39.7861028","-123.2450909","NAD83","75997 Covelo Rd","COVELO WWTP","Covelo","CA","95428","",""
"06002074001",1175336,"Point","38.5005","-122.440861","NAD83","1 CHAIX / THOMANN LANE","1 THOMANN LANE","Saint Helena","CA","94574","",""
"06003012001",1175381,"Point","36.7192","-121.7877","NAD83","14811 DEL MONTE BLVD","","Marina","CA","93933","",""
"06003047001",1175415,"Point","36.849142","-121.544760","NAD83","1120 THIRD STREET","NORTH END OF THIRD ST","San Juan Bautista","CA","95045","",""
"06004010004",1175494,"Point","34.1801","-118.4827","NAD83","6100 WOODLEY AVENUE","","Van Nuys","CA","91406","",""
"06005081001",1175598,"Point","39.1075","-121.6123","NAD83","302 BURNS DR","","Yuba City","CA","95991","",""
"06005157001",1175675,"Point","41.2928","-122.3122","NAD83","2500 GRANT ROAD","","Mount Shasta","CA","96067","",""
"06005297001",1175754,"Point","37.2458","-121.0219","NAD83","26501 carnation rd.","","Gustine","CA","95322","",""
"06008015001",1175965,"Point","33.9806","-117.4372","NAD83","11201 Harrel Street","Jurupa Community Services District","Mira Loma","CA","91752","",""
"06009076001",1176095,"Point","33.636488","-117.717390","NAD83","22312 Muirlands Boulevard","30290 RANCHO VIEJO ROAD, SAN JUAN CAPISTRANO","Lake Forest","CA","92630","",""
"06003033001",3486842,"Point","35.7208","-120.8838","NAD83","4870 HERITAGE RD","","Paso Robles","CA","93446","",""
"06009069001",3368012,"Point","33.208235","-116.320925","NAD83","","","Borrego Springs","CA","92004","",""
"06024006001",3517876,"Point","34.280588","-119.292297","NAD83","554 E Main St","","Ventura","CA","93001","",""
"06002060007",1175319,"Point","38.2442","-122.8814","NAD83","Irvin Rd","","Tomales","CA","94971","",""
"06005012001",1175534,"Point","36.711779","-120.074472","NAD83","15480 Church","","Kerman","CA","93630","",""
"06005042003",1175562,"Point","35.7632897","-119.3030814","NAD83","1107 Lytle Ave","between Garces Highway and Cecil ","Delano","CA","93215","",""
"06005077001",1175595,"Point","37.484","-120.8712","NAD83","901 S WALNUT RD","WWTP","Turlock","CA","95380-5123","",""
"06005105001",1175637,"Point","37.7656","-121.4208","NAD83","3900 HOLLY DRIVE","","Tracy","CA","95304","",""
"06005226001",1175717,"Point","36.5231","-119.3049","NAD83","40401 RD 120","","Cutler","CA","93615","",""
"06005262001",1175743,"Point","39.9367","-120.9467","NAD83","555 Main Street","","Quincy","CA","95971","",""
"06006009001",1175862,"Point","34.608486","-117.355571","NAD83","20111 Shay Rd","","Victorville","CA","92394","",""
"06007010001",1175920,"Point","33.612747","-114.597847","NAD83","235 N Broadway","","Blythe","CA","92225","",""
"06028009001",425890,"Point","34.010550","-117.680740","NAD83","13378 Benson Ave","","Chino","CA","91710","",""
"06004009001",1175477,"Point","33.8044","-118.2839","NAD83","24501 SOUTH FIGUEROA ST","","Carson","CA","90745","",""
"06005009001",1175529,"Point","38.4485","-121.4617","NAD83","8521 LAGUNA STATION ROAD","","Elk Grove","CA","95758","",""
"06005010001",1175530,"Point","35.3251","-118.9844","NAD83","1700 East Planz Road","","Bakersfield","CA","93314","",""
"06005026001",1175548,"Point","37.100372","-120.869179","NAD83","17963 W Henry Miller Ave","","Los Banos","CA","93635","",""
"06005164001",1175682,"Point","38.1617","-121.3158","NAD83","19720 North Benedict Drive","","Woodbridge","CA","95258","",""
"06005218001",1175712,"Point","38.584","-121.2214","NAD83","11TH STREET","","Sheridan","CA","95681","",""
"06005265001",1175744,"Point","39.410203","-121.716800","NAD83","2865 West Biggs Gridley Road","BIGGS WWTP","Gridley","CA","95948","",""
"06005783001",1175853,"Point","35.0824","-118.6371","NAD83","28500 STALLION SPRINGS DR","","Tehachapi","CA","93561","",""
"06001032001",1175200,"Point","38.4376","-122.8699","NAD83","250 ROSS LANE","SCWA GRATON CSA NO. 2, ROSS  RD","Sebastopol","CA","95472","",""
"06005079001",1175597,"Point","35.5942","-119.3894","NAD83","5410 7TH St.","","Wasco","CA","93280","",""
"06005198001",1175702,"Point","39.206129","-121.068681","NAD83","556 Freeman Ln C","GRASS VALLEY STP","Grass Valley","CA","95949","",""
"06005319001",1175766,"Point","41.2436","-122.1311","NAD83","421 Timber Country Ranch Rd,","","Mccloud","CA","96057","",""
"06005511002",1175815,"Point","37.630726","-120.361007","NAD83","2237 Ranchito Dr","","La Grange","CA","95329","",""
"06009014002",1176046,"Point","33.0869","-117.2592","NAD83","1960 La Costa Avenue","","Carlsbad","CA","92009","",""
"06009028001",1176063,"Point","33.0136","-117.2728","NAD83","2695 MANCHESTER AVE","","Cardiff By The Sea","CA","92007","",""
"06005142001",1175663,"Point","35.210020","-118.832277","NAD83","309 Campus Dr","","Arvin","CA","93203","",""
"06007014001",1175922,"Point","32.8537","-115.5639","NAD83","701 E 14th St","","Imperial","CA","92251","",""
"06007029001",1175936,"Point","33.7153","-116.1969","NAD83","45-500 VAN BUREN STREET","","Indio","CA","92201","",""
"06001026001",1175194,"Point","41.7751","-123.3994","NAD83","63804 California 96","","Happy Camp","CA","96039","",""
"06001045003",1175211,"Point","38.4458","-122.6181","NAD83","6374 Stone Bridge Rd","","Santa Rosa","CA","95409","",""
"06002166001",1175369,"Point","37.3059","-122.2674","NAD83","751 Phelps	","","San Francisco","CA","94124","",""
"06005146001",1175666,"Point","37.7958","-121.2606","NAD83","2450 WEST YOSEMITE AVE","","Manteca","CA","95337","",""
"06007030001",1175937,"Point","34.817609","-114.592381","NAD83","516 East Broadway, CA","","Needles","CA","92363","",""
"06008006006",1175954,"Point","33.6797","-117.3393","NAD83","1301 Case Road","","Perris","CA","92570","",""
"06008020002",1175974,"Point","33.882955","-117.556836","NAD83","650 E Harrison St","","Corona","CA","92879","",""
"06001004001",1175170,"Point","39.6831","-123.7619","NAD83","36970 Omega Drive","","Westport","CA","95488","",""
"06002069001",1175329,"Point","38.2519","-122.4413","NAD83","22675 8th St East","","Sonoma","CA","95476","",""
"06005053001",1175571,"Point","36.7061","-119.8903","NAD83","5607 West Jenson","","Fresno","CA","93706","",""
"06005335001",1175774,"Point","39.4922383","-121.7561708","NAD83","","","Richvale","CA","95974","",""
"06022012001",3514318,"Point","37.4592","-122.1108","NAD83","","","Palo Alto","CA","94303","",""
"06024012500",3532616,"Point","34.14788","-118.1437","NAD83","100 North Garfield Ave.","","Pasadena","CA","91109","",""
"06001012001",1175182,"Point","40.104665","-123.799503","NAD83","410 Bear Canyon Rd","","Garberville","CA","95542","",""
"06002024001",1175282,"Point","38.019097","-122.097775","NAD83","3800 Arthur Road","","Martinez","CA","94553","",""
"06003022001",1175389,"Point","36.2936","-121.2014","NAD83","215 El Camino Real","","Greenfield","CA","93546","",""
"06004029001",1175514,"Point","34.1909","-119.0151","NAD83","150 E HOWARD RD","","Camarillo","CA","93012","",""
"06005082021",3489196,"Point","38.1499","-120.4419","NAD83","1200-1204 Utica Powerhouse Rd","","Murphys","CA","95247","",""
"06004009006",1175482,"Point","33.8042","-118.0882","NAD83","7400 EAST WILLOW STREET","","Long Beach","CA","90815","",""
"06005112001",1175643,"Point","38.3528","-120.9334","NAD83","West Marlette and Five Mile Drive","","Ione","CA","95640","",""
"06022008001",2865324,"Point","37.371658","-122.031841","NAD83","","","Sunnyvale","CA","94086","",""
"06000203200",3509698,"Point","37.740653","-122.391043","NAD83","750 Phelps St","","San Francisco","CA","94124","",""
"06002090001",3521216,"Point","38.0444","-121.6944","NAD83","450 Walnut Meadows Drive","","Oakley","CA","94561","",""
"06002084001",1175341,"Point","37.919039","-122.299333","NAD83","7500 Schmidt Ln","","El Cerrito","CA","94530","",""
"06003021001",1175388,"Point","34.4246","-119.8361","NAD83","ONE WILLIAM MOFFETT PLACE","1000 FOWLER ST","Goleta","CA","93117","",""
"06005031001",1175553,"Point","39.065148","-121.550546","NAD83","3908 Mary Avenue","NR MCGOWAN PKWY & ARBOGA RD","Olivehurst","CA","95961","",""
"06001016001",1175185,"Point","40.7693","-124.2201","NAD83","595 River Road","","Miranda","CA","95553","",""
"06001047001",1175213,"Point","40.855111","-124.088430","NAD83","600 South G St","FOOT OF G ST","Arcata","CA","95521","",""
"06002040001",1175298,"Point","37.702336","-122.484233","NAD83","892 John Daly Blvd","","Daly City","CA","94015","",""
"06004009008",1175484,"Point","34.4324","-118.5919","NAD83","28185 THE OLD ROAD","","Valencia","CA","91355","",""
"06004020001",1175507,"Point","34.4008","-118.8267","NAD83","North side of State Route 126 and","east of Hopper Creek","Ventura","CA","93020","",""
"06005051001",1175570,"Point","37.3186","-120.5236","NAD83","2126 N. Drake","","Merced","CA","95340","",""
"06005227001",1238820,"Point","38.737348","-121.316614","NAD83","1800 Booth Rd","","Roseville","CA","95747","",""
"06007007001",1175913,"Point","33.147532","-115.54533","NAD83","106 LINDSEY ROAD","","Calipatria","CA","92233","",""
"06009020001",1176052,"Point","33.008124","-117.190433","NAD83","15525 Via de Santa Fe","","Rancho Santa Fe","CA","92067","",""
"06002032003",1175289,"Point","37.741128","-122.390571","NAD83","750 Phelps St","","San Francisco","CA","94124","",""
"06002044004",1175304,"Point","37.948445","-122.495724","NAD83","1301 ANDERSON DRIVE","","San Rafael","CA","94901","",""
"06002057001",1175314,"Point","37.9732","-122.3371","NAD83","2377 Garden Tract Rd","","Richmond","CA","94801","",""
"06003041001",1175408,"Point","34.5872","-120.1417","NAD83","1644 Oak Street","","Solvang","CA","93463","",""
"06004011009",1175497,"Point","34.2672","-119.2036","NAD83","3555 Ventura Rd.","","Ventura","CA","93003","",""
"06005035001",1175556,"Point","39.4996","-122.1886","NAD83","1600 TEHEMA STREET","SOUTH TEHEMA","Willows","CA","95988","",""
"06005125001",1175656,"Point","39.1406","-121.5872","NAD83","209-299 5th St","","Marysville","CA","95901","",""
"06005126001",1175657,"Point","37.4983","-121.0953","NAD83","14901 Poplar Avenue","","Patterson","CA","95363","",""
"06005238001",1175725,"Point","38.306069","-120.713460","NAD83","8970 Old Toll","","Mokelumne Hill","CA","95245","",""
"06005271001",1175746,"Point","37.866723","-121.615970","NAD83","4200 Camino Diablo","","Byron","CA","94514","",""
"06005306001",1175758,"Point","35.201236","-118.955584","NAD83","6525 East Bear Mountain","","Lamont","CA","93307","",""
"06005311001",1175762,"Point","36.3889","-118.9839","NAD83","38836 Sierra Dr.","","Lemon Cove","CA","93244","",""
"06009036001",1176075,"Point","32.871982","-117.004437","NAD83","12001 North Fanita Parkway","","Santee","CA","92072","",""
"06009053001",1176088,"Point","33.3114","-117.0058","NAD83","14911 Pauma Valley Drive","","Pauma Valley","CA","92061","",""
"06005056001",1175575,"Point","36.2842","-120.0919","NAD83","36311 Lassen Avenue","","Huron","CA","93234","",""
"06006013001",1175866,"Point","34.2432","-117.1704","NAD83","28200 State Highway 189","","Lake Arrowhead","CA","92352","",""
"06008004001",1175948,"Point","34.0775","-117.2926","NAD83","399 CHANDLER PLACE","","San Bernardino","CA","92408","",""
"06009039001",1176077,"Point","33.2547","-117.1467","NAD83","8711 Circle Dr","","Escondido","CA","92026","",""
"06009041002",1176080,"Point","33.180233","-117.370986","NAD83","3950 N. River Rd","","Oceanside","CA","92054","",""
"06009075001",1176094,"Point","33.5711","-117.6736","NAD83","26801 Camino Capistrano","","Laguna Niguel","CA","92653","",""
"06005019004",395847,"Point","37.7849","-121.3084","NAD83","19094 Howland Rd","","Lathrop","CA","95330","",""
"06001070001",1175229,"Point","39.3051924","-123.80712","NAD83","10500 KELLY STREET","","Mendocino","CA","95460","",""
"06002026001",1175284,"Point","37.9819","-122.0436","NAD83","1455 Gasoline Alley","","Concord","CA","94519","",""
"06004003001",1175458,"Point","34.285021","-118.813105","NAD83","600 West Los Angeles Ave","","Simi Valley","CA","93065","",""
"06004009009",1175485,"Point","34.827966","-118.160791","NAD83","1865 W Ave D","","Lancaster","CA","93534","",""
"06005088002",1175609,"Point","39.4857","-121.5634","NAD83","2880 SOUTH 5TH AVE","","Oroville","CA","95965-5851","",""
"06005106001",1175638,"Point","37.270945","-120.633059","NAD83","530 S Bert Crane Rd","","Atwater","CA","95301","",""
"06005351001",1175785,"Point","36.0567","-119.3122","NAD83","APN 228-180-08","","Tipton","CA","93272","",""
"06006005001",1175858,"Point","34.883713","-116.976972","NAD83","2200 Riverside Dr.","","Barstow","CA","92311","",""
"06007005001",1175911,"Point","32.670376","-115.513344","NAD83","298 West 2nd Street","298 EAST ANZA ROAD","Calexico","CA","92231","",""
"06007032001",1175939,"Point","33.9161","-116.8439","NAD83","2242 East Charles Street","","Banning","CA","92220","",""
"06008080001",1176025,"Point","34.2619","-117.5006","NAD83","12402 Industrial Blvd","","Victorville","CA","92392","",""
"06002011001",1175272,"Point","37.588153","-122.360144","NAD83","1103 Airport Blvd","","Burlingame","CA","94010","",""
"06002064001",1175324,"Point","38.0401","-122.2636","NAD83","800 SAN PABLO AVENUE","","Rodeo","CA","94572","",""
"06002127001",1175359,"Point","38.3958","-122.3579","NAD83","7501 SOLANO AVENUE","","Yountville","CA","94599","",""
"06003036001",1175401,"Point","35.6116","-121.1462","NAD83","9245 BALBOA ROAD","SAN SIMEON WWTP","San Simeon","CA","93452","",""
"06003040001",1175407,"Point","34.9479158","-120.4944744","NAD83","601 Black Road","","Santa Maria","CA","93458","",""
"06004007001",1175462,"Point","34.2157","-118.9288","NAD83","9600 SANTA ROSA RD","","Camarillo","CA","93012","",""
"06005046001",1175566,"Point","36.997549","-120.682669","NAD83","West side of Swift Road","","Dos Palos","CA","93620","",""
"06005272001",1175747,"Point","37.7875","-121.5921","NAD83","1/2 Mile N. of Buttonwillow","","Buttonwillow","CA","93206","",""
"06007018001",1175927,"Point","32.7958","-115.6957","NAD83","1898 WEST MAIN STREET","","Seeley","CA","92273","",""
"06008027001",1175982,"Point","34.2144","-117.1211","NAD83","31242 hilltop blvd","","Running Springs","CA","92382","",""
"06008085001",1176028,"Point","33.522363","-117.189617","NAD83","42565 Avenida Alvarado","","Temecula","CA","92590","",""
"06001092001",2875821,"Point","38.7239","-123.4714","NAD83","2150 W. College","","Santa Rosa","CA","95401","",""
"06005227002",3520617,"Point","38.786204","-121.378326","NAD83","5051 Westpark Drive","","Roseville","CA","95747","",""
"06024007001",474006,"Point","34.177157","-118.847351","NAD83","","","Thousand Oaks","CA","91362","",""
"06006028002",3349051,"Point","40.3661","-120.5306","NAD83","Buffum Lane","","Susanville","CA","96130","",""
"06028004001",457939,"Point","34.13126","-117.29019","NAD83","MS4/SB COUNTY FLOOD CNTRL DIST","","San Bernardino","CA","92415","",""
"06008069001",1176015,"Point","33.803828","-117.999687","NAD83","","","Stanton","CA","90680","",""
"06000000172",3609151,"City","36.971015","-122.027893","NAD83","","","Walsenburg","CA","95060","",""
"06000000217",3610538,"City","37.593016","-120.955524","NAD83","","","Lindsay","CA","","",""
"06000000229",3611186,"City","34.4237757","-117.315703","NAD83","","","San Fernando","CA","","",""
"06000000238",3611362,"City","38.733732","-120.787811","NAD83","","","La Veta","CA","95667","",""
"06000000266",3611390,"County","32.717977","-117.127991","NAD83","","","","CA","","06073","San Diego"
"06000000293",3612211,"City","38.012782","-121.88834","NAD83","","","La Jara","CA","94565","",""
"06000000148",3608849,"County","37.822802","-122.258606","NAD83","","","","CA","","06001","Alameda"
"06000000233",3611357,"County","39.690281","-121.805420","NAD83","","","","CA","","06007","Butte"
"06000000263",3611387,"County","38.591114","-121.470337","NAD83","","","","CA","","06067","Sacramento"
"06000000259",3611383,"County","33.669497","-117.729492","NAD83","","","","CA","","06059","Orange"
"06001049001",1175215,"Point","38.8034","-123.5785","NAD83","46890 GETCHELL GULCH RD","","Gualala","CA","95445","",""
"06002092001",1175344,"Point","37.9228","-122.7217","NAD83","101 Mesa Rd","","Bolinas","CA","94924","",""
"06004009005",1175481,"Point","33.8799","-118.1035","NAD83","16515 PIUMA AVENUE","","Cerritos","CA","90703","",""
"06005068001",1175588,"Point","37.749408","-120.942736","NAD83","23865 Santa Fe Rd","","Riverbank","CA","95367","",""
"06007021001",1175929,"Point","33.9425","-116.4919","NAD83","14601 Verbena Dr","","Desert Hot Springs","CA","92240","",""
"06025023002",2875505,"City","40.465429","-122.276266","NAD83","","","Fort Jones","CA","96007","",""
"06005021001",1175542,"Point","37.387566","-120.613811","NAD83","6951 N Winton Way","","Winton","CA","95388","",""
"06002058001",1175315,"Point","37.4753","-122.4388","NAD83","1000 NORTH CABRILLO HIGHWAY","","Half Moon Bay","CA","94019","",""
"06004032001",1175516,"Point","34.1822","-118.3181","NAD83","740 N. LAKE STREET","","Burbank","CA","91502","",""
"06005024001",1175545,"Point","39.2594","-121.6786","NAD83","3450 TREATMENT PLANT ROAD","","Live Oak","CA","95953","",""
"06005257001",1175740,"Point","39.101458","-121.580780","NAD83","909 Myrna Ave","LINDA CO WD WWTP","Marysville","CA","95901","",""
"06008006002",1175951,"Point","33.871663","-117.214165","NAD83","17140 Kitching St","","Moreno Valley","CA","92553","",""
"06002071001",1175331,"Point","38.100396","-122.553231","NAD83","500 Davidson Street Novato, CA 94945 Marin County","NOVATO AND IGNACIO STP","Novato","CA","94945","",""
"06003003001",1175374,"Point","34.576126","-119.917316","NAD83","2225 Hwy 154","","Santa Barbara","CA","93105","",""
"06003058001",1175426,"Point","35.182240","-120.732923","NAD83","2850 AVILA BEACH DR","","Avila Beach","CA","93424","",""
"06003070001",1175438,"Point","36.5086","-121.4417","NAD83","147 Fourth Street","","Gonzales","CA","93926","",""
"06004011010",1175498,"Point","34.2751","-119.1462","NAD83","1001 Partridge Drive, Suite 150","","Ventura","CA","93003","",""
"06005011001",1175532,"Point","39.6996","-121.9108","NAD83","4827 CHICO RIVER RD","","Chico","CA","95927","",""
"06005025001",1175546,"Point","37.937778","-121.335556","NAD83","2500 NAVY DRIVE","","Stockton","CA","95206","",""
"06005097001",1175617,"Point","37.3289","-119.6653","NAD83","48382 Black Oakriver Rd ","","Oakhurst","CA","93644","",""
"06000000222",3610650,"City","33.710489","-117.947845","NAD83","","","Pleasanton","CA","","",""
"06005148001",1175668,"Point","38.146168","-119.380703","NAD83","13425 Twin Lakes Rd","","Bridgeport","CA","93517","",""
"06000000257",3611381,"City","38.303948","-122.276459","NAD83","","","Como","CA","94558","",""
"06000000278",3611402,"City","38.438531","-122.711792","NAD83","","","Westminster","CA","95401","",""
"06000000277",3611401,"County","38.258941","-122.033730","NAD83","","","","CA","","06095","Solano"
"06000000275",3611399,"City","39.560177","-120.811157","NAD83","","","Newcastle","CA","","",""
"06000000272",3611396,"County","37.326489","-121.942749","NAD83","","","","CA","","06085","Santa Clara"
"06000000270",3611394,"County","37.485756","-122.208481","NAD83","","","","CA","","06081","San Mateo"
"06000000267",3611391,"County","37.760944","-122.420654","NAD83","","","","CA","","06075","San Francisco"
"06000000066",3606862,"City","37.628916","-120.991745","NAD83","","","Bellvue","CA","","",""
"06003075001",1175442,"Point","36.213741","-121.27575","NAD83","","","Monterey","CA","93927","",""
"06005669001",1175844,"Point","39.322480","-120.117559","NAD83","","","Truckee","CA","96161","",""
"06000000232",3611356,"County","38.483695","-120.396423","NAD83","","","","CA","","06005","Amador"
"06004051001",427399,"Point","34.002724","-118.231087","NAD83","4305 S Santa Fe Ave","","Los Angeles","CA","90058","",""
"06008075001",1176021,"Point","33.814971","-117.821352","NAD83","17855 Santiago Blvd","","Villa Park","CA","92861","",""
"06004040001",1175518,"Point","34.030292","-117.824957","NAD83","271 S Brea Canyon Rd","","Walnut","CA","91789","",""
"06008010003",1175961,"Point","33.965715","-117.676320","NAD83","6075 Kimball Avenue","","Chino","CA","91708","",""
"06001064001",1175223,"Point","41.967659","-121.910648","NAD83","Highway 97","","Dorris","CA","96023","",""
"06003014001",1175382,"Point","35.38","-120.8601","NAD83","160 ATASCADERO ROAD","","Morro Bay","CA","93442","",""
"06005082002",1175599,"Point","38.108744","-120.45728","NAD83","Holiday Mine Rd","","Douglas Flat","CA","95229","",""
"06005241001",1175728,"Point","39.0075","-122.0069","NAD83","104 5th Street","","Arbuckle","CA","95912","",""
"06005249001",1175733,"Point","38.628522","-120.985340","NAD83","1598 Deer Creek Rd","","Shingle Springs","CA","95682","",""
"06009038001",1176076,"Point","33.4364","-117.6256","NAD83","910 Calle Negocio","","San Clemente","CA","92672","",""
"06000000150",3608852,"City","38.547091","-121.743193","NAD83","","","Montague","CA","","",""
"06000000155",3608951,"Point","34.059202","-118.130150","NAD83","415 W Garvey Ave","","Monterey Park","CA","91754","",""
"06009049001",1176086,"Point","32.578642","-117.109451","NAD83","","","Imperial Beach","CA","91932","",""
"06008071001",1176017,"Point","33.75312299","-117.994551","NAD83","","","Midway City","CA","92683","",""
"06004005003",1175460,"Point","34.229341","-118.248349","NAD83","2700 Foothill Blvd","","La Crescenta","CA","91214","",""
"06000000290",3611459,"City","36.939736","-120.157366","NAD83","","","Whittier","CA","93637","",""
"06000000274",3611398,"City","40.605612","-122.387695","NAD83","","","Naturita","CA","","",""
"06000000239",3611363,"County","36.791691","-119.729004","NAD83","","","","CA","","06019","Fresno"
"06000000092",3607832,"Point","34.073564","-118.395710","NAD83","330 Foothill Rd","","Beverly Hills","CA","90210","",""
"06000000119",3608134,"City","37.498287","-120.841370","NAD83","","","Norwalk","CA","","",""
"06000000124",3608283,"Point","33.531540","-117.189424","NAD83","26266 Washington Ave","","Murrieta","CA","92562","",""
"06000000137",3608581,"Point","35.667477","-117.647867","NAD83","KNOX ROAD & POLE LINE ROAD","","Ridgecrest","CA","93555","",""
"06022054001",3489911,"City","38.166955","-122.250710","NAD83","","","Fort Bidwell","CA","94503","",""
"06008066001",1176012,"Point","33.849158","-118.036680","NAD83","7822 Walker St","","La Palma","CA","90623","",""
"06000000289",3611431,"City","34.0478284","-117.24677","NAD83","","","Vernalis","CA","92354","",""
"06000000099",3607878,"Point","37.9252742","-121.6412752","NAD83","2500 Channel Road","","Discovery Bay","CA","94505","",""
"06000000098",3607877,"Point","37.8894329","-121.5861765","NAD83","17501 Highway 4","","Discovery Bay","CA","94505","",""
"06002175001",3224310,"Point","37.764201","-122.233887","NAD83","1634 Versailles Ave","","Alameda","CA","94501","",""
"06000000227",3610913,"City","33.788279","-117.845879","NAD83","","","Franktown","CA","","",""
"06002085001",1175342,"Point","37.896006","-122.544851","NAD83","315 Montford Ave","","Mill Valley","CA","94941","",""
"06025011001",2830221,"City","39.734518","-121.839838","NAD83","","","Loleta","CA","95926","",""
"06001056001",3477690,"Point","41.5288","-122.3628","NAD83","County Road 20","","Weed","CA","96094","",""
"06000000181",3609275,"Point","34.595355","-117.408174","NAD83","","","Adelanto","CA","92301","",""
"06002009001",1175270,"Point","37.872859","-122.451108","NAD83","2001 Paradise Dr","","Belvedere Tiburon","CA","94920","",""
"06000000215",3610516,"Point","33.9109629","-117.289995","NAD83","14205 Meridian Parkway","","March Air Reserve Base","CA","92518","",""
"06000000147",3608839,"County","37.4849159","-122.2273204","NAD83","","","","CA","","06081","San Mateo"
"06000000174",3609167,"Point","36.075794","-119.048409","NAD83","","","Porterville","CA","93257","",""
"06000000286",3611410,"City","38.676933","-121.747742","NAD83","","","Naval Anacost Annex","CA","95776","",""
"06000000282",3611406,"City","40.730088","-122.943192","NAD83","","","Stamford","CA","","",""
"06000000281",3611405,"County","40.170479","-122.198181","NAD83","","","","CA","","06103","Tehama"
"06003035001",1238813,"Point","35.7553","-120.6958","NAD83","NORTH EXTENSION OF N ST","","San Miguel","CA","93451","",""
"06003017001",1238812,"Point","36.5397","-121.9189","NAD83","26900 STATE ROUTE ONE","","Carmel","CA","93922","",""
"06002032004",442052,"Point","37.8187","-122.3734","NAD83","1220 AVENUE M","END OF M ST, TREASURE ISLAND","San Francisco","CA","94130","",""
"06000000226",3610894,"City","40.59797","-124.1544947","NAD83","","","Playa Del Rey","CA","95540-0016","",""
"06000000249",3611373,"City","36.969644","-120.055847","NAD83","","","Whittier","CA","93637","",""
"06004059001",1175522,"Point","34.139100","-118.27236","NAD83","","","Pasadena","CA","90039","",""
"06005102002",1175625,"Point","39.051658","-121.0675","NAD83","","","Meadow Vista","CA","95949","",""
"06000000142",3608724,"City","33.543684","-117.782106","NAD83","","","Stinson Beach","CA","","",""
"06002151001",1175363,"Point","37.907858","-122.549121","NAD83","16 Bayview Ave","","Mill Valley","CA","94941","",""
"06003094001",406088,"Point","35.124235","-120.577365","NAD83","","","Arroyo Grande","CA","93420","",""
"06000000228",3611072,"City","36.33058417","-119.650319","NAD83","","","Rowland Heights","CA","","",""
"06008016002",1175968,"Point","33.877292","-117.520752","NAD83","13538 Magnolia Avenue","","Corona","CA","92879","",""
"06005279001",1238822,"Point","40.2987","-121.2271","NAD83","881 FIRST AVE","","Chester","CA","96020","",""
"06001001001",1175167,"Point","41.949249","-121.4735957","NAD83","1000 Dean Callas Way","","Tulelake","CA","96134","",""
"06002052001",1175310,"Point","37.668264","-122.158785","NAD83","2655 Grant Ave","EBDA JOINT OUTFALL, ALAMEDA","San Lorenzo","CA","94580","",""
"06001048001",1175214,"Point","38.9086","-123.6961","NAD83","38-42 Iverson Ave","","Point Arena","CA","95468","",""
"06002027001",1175285,"Point","38.0148","-121.9933","NAD83","California Delta Hwy","","Concord","CA","94520","",""
"06003005001",1175376,"Point","35.4839","-120.6444","NAD83","8005 Gabarda Rd","","Atascadero","CA","93422","",""
"06003061001",1175428,"Point","34.4052219","-119.527500","NAD83","5351 SIXTH ST","5300 SIXTH STREET","Carpinteria","CA","93013","",""
"06003083001",1175446,"Point","36.79","-121.32","NAD83","Airline Hwy","","Tres Pinos","CA","95075","",""
"06005062001",1175583,"Point","38.0883","-121.3836","NAD83","12751 N THORNTON ROAD","","Lodi","CA","95242","",""
"06005064001",1175585,"Point","37.2527","-120.5249","NAD83","10260 GOVE RD","","Merced","CA","95340","",""
"06005159001",1175677,"Point","37.8204","-121.0122","NAD83","18966 Ferretti Rd","","Groveland","CA","95321","",""
"06005310001",1175761,"Point","36.300600","-119.814920","NAD83","351 Belle Haven Dr","","Lemoore","CA","93245","",""
"06006010001",1175863,"Point","37.6583","-118.8989","NAD83","1315 Meridian Blvd","","Mammoth Lakes","CA","93546","",""
"06008001001",1175945,"Point","33.9639","-117.4575","NAD83","5950 ACORN STREET","","Riverside","CA","92504-2504","",""
"06008029001",1175985,"Point","34.109140","-117.250525","NAD83","25318 5th Street","","San Bernardino","CA","92410","",""
"06000000170",3609134,"Point","37.461506","-122.201786","NAD83","","","Menlo Park","CA","94025","",""
"06029046001",415588,"City","32.955673","-117.259998","NAD83","","","Moorpark","CA","92014","",""
"06000000223",3610714,"City","33.869275","-117.922783","NAD83","","","Potrero","CA","","",""
"06000000225",3610792,"City","38.283469","-121.291466","NAD83","","","Prather","CA","95632","",""
"06005229001",1175718,"Point","41.510184","-120.542979","NAD83","","","Alturas","CA","96101","",""
"06008076001",1176022,"Point","33.788136","-117.852917","NAD83","","","Orange","CA","92866","",""
"06000000237",3611361,"City","41.777457","-124.161987","NAD83","","","Mentone","CA","95531","",""
"06005185001",1175694,"Point","37.952861","-121.273956","NAD83","1702 Scotts","","Stockton","CA","95205","",""
"06002056001",1175312,"Point","37.8907322","-122.4842601","NAD83","500 Tiburon Blvd","","Belvedere Tiburon","CA","94920","",""
"06000000068",3606909,"Point","37.667822","-122.159128","NAD83","2600 Grant Ave","","San Lorenzo","CA","94580","",""
"06005027001",1175549,"Point","38.679480","-121.153965","NAD83","","","Folsom","CA","95630","",""
"06008047001",1176001,"Point","34.212157","-117.076921","NAD83","Carlock Dr","","Running Springs","CA","92382","",""
"06003018001",1175385,"Point","36.761802","-121.746926","NAD83","11499 Geil St","","Castroville","CA","95012","",""
"06003062001",1175429,"Point","34.515610","-119.926758","NAD83","J Rd, Santa Barbara, CA 93117","","Goleta","CA","93117","",""
"06001002001",1175168,"Point","41.725","-122.5331","NAD83","1030 13th St","","Montague","CA","96064","",""
"06002008001",1175269,"Point","37.418845","-122.015362","NAD83","1440 Borregas Ave","","Sunnyvale","CA","94088","",""
"06002060003",1175317,"Point","38.1136","-122.5658","NAD83","Golden Gate Place","","Novato","CA","94945","",""
"06002053001",1175311,"Point","38.5673","-122.5562","NAD83","1100 DUNAWEAL LN","""1185 DUNAWEAL LANE""","Calistoga","CA","94515","",""
"06002108001",1175347,"Point","38.025","-122.5169","NAD83","300 Smith Ranch Rd","","San Rafael","CA","94903","",""
"06004044001",1175519,"Point","34.3357","-119.0837","NAD83","905 CORPORATION ST","","Santa Paula","CA","93060","",""
"06005043001",1175563,"Point","37.1035684","-120.2667223","NAD83","Ave 24 1/2","","Chowchilla","CA","93610","",""
"06002176001",412968,"Point","37.825277","-122.230325","NAD83","120 Vista Piedmont","","Piedmont","CA","94611","",""
"06002067001",1175327,"Point","38.0140032","-121.88712","NAD83","","","Pittsburg","CA","94565","",""
"06002174001",3008943,"Point","37.888267","-122.298346","NAD83","978 San Pablo Ave","","Albany","CA","94706","",""
"06000000104",3607926,"Point","37.805308","-122.271652","NAD83","","","Oakland","CA","94612","",""
"06000000194",3609471,"City","32.794882","-116.959049","NAD83","","","Olema","CA","","",""
"06000000203",3609627,"Point","33.687779","-117.837982","NAD83","2506 McGaw Ave","","Irvine","CA","92614","",""
"06003066001",1175434,"Point","36.698799","-121.673455","NAD83","15385 El Rancho Ct","","Salinas","CA","93907","",""
"06000000109",3608001,"Point","34.6159049","-117.3586637","NAD83","20111 Shay Rd, Victorville, CA 92394","","Victorville","CA","92394","",""
"06012004008",412595,"City","34.146334","-119.163380","NAD83","","","Gilcrest","CA","93033","",""
"06000000230",3611330,"City","38.1342064","-121.273621","NAD83","","","Venice","CA","95240","",""
"06000000220",3610610,"City","35.121313","-120.625591","NAD83","","","Rocklin","CA","","",""
"06002017001",1175276,"Point","37.501742","-122.469664","NAD83","504 Ave Alhambra #304, Half Moon Bay","","El Granada","CA","94019","",""
"06022033001",3163051,"City","38.300605","-122.283196","NAD83","","","Como","CA","94559","",""
"06012001109",3120262,"City","35.79830","-119.10298","NAD83","","","Olney Springs","CA","93261","",""
"06004014001",1175501,"Point","34.278975","-118.893700","NAD83","9550 Los Angeles Ave","","Moorpark","CA","93021","",""
"06005284001",1175750,"Point","36.143108","-120.337007","NAD83","","","Coalinga","CA","93210","",""
"06005654001",1175840,"Point","35.6475","-119.7983","NAD83","21331 Hwy 46","","Lost Hills","CA","93249","",""
"06008022002",1175977,"Point","33.637596","-117.958274","NAD83","22212 Brookhurst Street","22212 BROOKHURST STREET, HUNTINGTON BEACH","Huntington Beach","CA","92646","",""
"06022032001",3217908,"Point","37.7403","-122.3903","NAD83","","","San Francisco","CA","94124-1091","",""
"06005098002",3479031,"Point","40.4969","-122.3565","NAD83","6475 Airport Road","","Anderson","CA","96007","",""
"06002054001",3486530,"Point","38.1892","-122.2758","NAD83","151 MEZZETTA COURT","&RF, 9604","American Canyon","CA","94503","",""
"06001024001",1175192,"Point","41.753906","-124.196041","NAD83","377 J St","","Crescent City","CA","95531","",""
"06002044001",1175302,"Point","37.948208","-122.495756","NAD83","111 Morphew St","","San Rafael","CA","94901","",""
"06005288001",1175751,"Point","35.379272","-118.9461614","NAD83","1417 Vale St","","Bakersfield","CA","93306","",""
"06008017001",1175970,"Point","34.036560","-117.303654","NAD83","22795 Barton Rd","","Grand Terrace","CA","92313","",""
"06001008001",1175175,"Point","40.593","-124.2597","NAD83","701 PORT KENYON ROAD","","Ferndale","CA","95536","",""
"06001099001",1175246,"Point","38.519899","-122.795863","NAD83","2025 Aviation Boulevard","","Santa Rosa","CA","95403","",""
"06002029001",1175287,"Point","37.634218","-122.134581","NAD83","3700 Enterprise Ave","EBDA JOINT OUTFALL, ALAMEDA","Hayward","CA","94545","",""
"06002120001",1175354,"Point","38.0129","-122.2963","NAD83","11 TENNENT AVENUE","","Pinole","CA","94564","",""
"06002121001",1175355,"Point","37.6584","-121.8783","NAD83","Sunol Blvd","","Pleasanton","CA","95466","",""
"06003090001",1175449,"Point","37.085858","-121.611786","NAD83","13425 Monterey Hwy","","San Martin","CA","95046","",""
"06004010002",1175492,"Point","33.7453","-118.261","NAD83","445 FERRY ST","","San Pedro","CA","90731-7493","",""
"06005015001",1175537,"Point","36.1901","-119.3657","NAD83","1875 S. West Street","","Tulare","CA","93274","",""
"06005039001",1175559,"Point","36.2181","-119.1364","NAD83","23611 Road 196","","Lindsay","CA","93247","",""
"06005160001",1175678,"Point","37.8383","-120.0758","NAD83","17600 HWY 108","","Jamestown","CA","95327","",""
"06005184001",1175693,"Point","38.3453","-121.9042","NAD83","6040 VACA STATION ROAD","","Elmira","CA","95625","",""
"06005682001",1175846,"Point","39.2587","-120.9061","NAD83","14326 GAS CANYON ROAD","NEVADA COUNTY SANITATION DISTRICT NO. 1","Nevada City","CA","95959-8600","",""
"06000000276",3611400,"City","41.734429","-122.622528","NAD83","","","Ellendale","CA","","",""
"06000000273",3611397,"County","36.966901","-122.036819","NAD83","","","","CA","","06087","Santa Cruz"
"06000000202",3609600,"City","34.052659","-117.718506","NAD83","","","Littleton","CA","","",""
"06002001001",1175262,"Point","37.693312","-122.066045","NAD83","21040 Marshall St","","Castro Valley","CA","94546","",""
"06005066001",1175587,"Point","37.2892448","-120.3241137","NAD83","103 Live Oak St","8597 W TOEWS, W OF PLAINSBURG","Planada","CA","95365","",""
"06000000269",3611393,"County","35.290469","-120.656662","NAD83","","","","CA","","06079","San Luis Obispo"
"06000000235",3611359,"County","39.212039","-122.010040","NAD83","","","","CA","","06011","Colusa"
"06000000248",3611372,"County","34.034453","-118.245850","NAD83","","","","CA","","06037","Los Angeles"
"06001691001",1175260,"Point","40.594664","-124.147911","NAD83","452 N Fortuna Blvd","","Fortuna","CA","95540","",""
"06003020001",1175387,"Point","36.957707","-121.764973","NAD83","","","Santa Cruz","CA","95060-4003","",""
"06000000208",3609709,"City","35.124182","-120.577397","NAD83","","","Garden Valley","CA","93420","",""
"06004004001",1175459,"Point","34.021933","-118.391075","NAD83","","","Culver City","CA","90232","",""
"06022092001",2937482,"City","37.985027","-122.591291","NAD83","","","Pasadena","CA","94930","",""
"06008068001",1176014,"Point","33.833278","-117.913213","NAD83","301 S Anaheim Blvd","","Anaheim","CA","92805","",""
"06005082001",1238818,"Point","38.3792","-120.4533","NAD83","433 East Saint Charles Street","","San Andreas","CA","95249","",""
"06022109001",3490190,"City","37.691300","-121.807458","NAD83","","","Valley Springs","CA","","",""
"06003010001",1175379,"Point","36.961685","-122.030345","NAD83","","","Santa Cruz","CA","95060","",""
"06003081001",1175445,"Point","35.100868","-120.624250","NAD83","1600 Aloha Place","","Oceano","CA","93445","",""
"06004026001",1175512,"Point","34.089061","-118.685303","NAD83","731 Malibu Canyon Rd","","Calabasas","CA","91302","",""
"06005205001",1175708,"Point","38.5906","-121.6708","NAD83","45400 COUNTY ROAD 28H","","Davis","CA","95616","",""
"06000000271",3611395,"County","34.425036","-119.715271","NAD83","","","","CA","","06083","Santa Barbara"
"06000000268",3611392,"County","37.926868","-121.261597","NAD83","","","","CA","","06077","San Joaquin"
"06000000279",3611403,"County","37.527154","-121.261597","NAD83","","","","CA","","06099","Stanislaus"
"06000000132",3608439,"Point","33.512524","-117.173738","NAD83","42135 Winchester Rd","","Temecula","CA","92590","",""
"06000000173",3609157,"Point","34.099154","-118.099251","NAD83","107 E Broadway","","San Gabriel","CA","91776","",""
"06000000190",3609351,"County","35.366096","-120.841713","NAD83","","","","CA","","06079","San Luis Obispo"
"06002107001",1175346,"Point","38.010315","-122.266331","NAD83","111 Civic Dr","","Hercules","CA","94547","",""
"06001037001",1175203,"Point","38.341814","-122.700524","NAD83","","","Rohnert Park","CA","94928","",""
"06008023001",2942642,"Point","33.750606","-117.899094","NAD83","","","Santa Ana","CA","92701","",""
"06008078001",1176024,"Point","33.680390","-117.874160","NAD83","290 Paularino Ave","","Costa Mesa","CA","92626","",""
"06000000251",3611375,"City","37.483577","-119.961090","NAD83","","","Woodbridge","CA","95338","",""
"06000000285",3611409,"City","34.261757","-119.231873","NAD83","","","Silver Plume","CA","93001","",""
"06000000125",3608290,"Point","33.502183","-117.157173","NAD83","","","Temecula","CA","92590","",""
"06001069001",1175228,"Point","40.639480","-124.226682","NAD83","2656 Eel River Dr","","Loleta","CA","95551","",""
"06003037001",1175402,"Point","34.418907","-119.684742","NAD83","520 E Yanonali St","","Santa Barbara","CA","93103","",""
"06005113001",1175644,"Point","36.6632","-119.585","NAD83","11495 East American","","Del Rey","CA","93616","",""
"06005114001",1175645,"Point","38.466207","-120.038906","NAD83","441 Creekside Dr, Bear Valley","","Arnold","CA","95223","",""
"06006004001",1175857,"Point","38.922207","-119.971111","NAD83","1275 Meadow Crest Dr","","South Lake Tahoe","CA","96150","",""
"06009058001",1176089,"Point","32.8356","-117.13","NAD83","5555 Overland Ave MS 0384","","San Diego","CA","92123","",""
"06004002001",1175457,"Point","34.346767","-119.296803","NAD83","6363 N Ventura Ave","","Ventura","CA","93001","",""
"06004017001",1175504,"Point","34.3985421","-118.9124912","NAD83","250 Central Ave","","Fillmore","CA","93015","",""
"06005308001",1175759,"Point","36.4344","-119.6844","NAD83","6331 Dewoody","","Laton","CA","93242","",""
"06006012001",1175865,"Point","37.8133","-118.9971","NAD83","Route 1","","Mammoth Lakes","CA","93546","",""
"06007016001",1175924,"Point","33.3829","-115.706","NAD83","COOLEDGE SPRINGS RD/HWY 86","","Salton City","CA","92274","",""
"06008024001",1175978,"Point","34.0506","-117.3331","NAD83","1201 SOUTH RANCHO AVENUE","ON STP","Colton","CA","92324","",""
"06002039001",1175297,"Point","37.603284","-122.379198","NAD83","400 East Millbrae Ave","","Millbrae","CA","94030","",""
"06005098001",1175618,"Point","40.496917","-122.356472","NAD83","2220 METZ ROAD","","Anderson","CA","96007","",""
"06005316001",1175765,"Point","36.471977","-119.435441","NAD83","Rd 60 at Ave 376","","Dinuba","CA","93618","",""
"06000000250",3611374,"City","37.907367","-122.516785","NAD83","","","Ault","CA","","",""
"06009068002",1176092,"Point","33.36685932","-117.06927","NAD83","","","Pala","CA","92059","",""
"06008074001",1176020,"Point","33.881468","-117.86064","NAD83","","","Platina","CA","92870","",""
"06009008001",1176039,"Point","32.834164","-116.749649","NAD83","","","Alpine","CA","91901","",""
"06008010009",410658,"Point","33.999735","-117.750778","NAD83","13933 Falcon Ridge Dr","","Chino Hills","CA","91709","",""
"06001013001",1175183,"Point","38.9528","-123.0983","NAD83","13769 Highway 101","","Hopland","CA","95449","",""
"06001045001",1175209,"Point","38.3688","-122.7686","NAD83","4300 LLANO ROAD","","Santa Rosa","CA","95402","",""
"06005078001",1175596,"Point","36.3119","-119.4121","NAD83","7579 AVENUE 288","","Visalia","CA","93277","",""
"06005300001",1175756,"Point","37.4003","-120.87","NAD83","8319 Hander Ave","","Hilmar","CA","95324","",""
"06006002001",1175855,"Point","40.4143","-120.6297","NAD83","476-200 BUNYAN ROAD","","Susanville","CA","96130","",""
"06008100001",1176031,"Point","33.619212","-117.726477","NAD83","23542 Moulton Pkwy","30290 RANCHO VIEJO ROAD, SAN JUAN CAPISTRANO","Laguna Woods","CA","92637","",""
"06000000246",3611370,"County","38.954069","-122.618408","NAD83","","","","CA","","06033","Lake"
"06025246001",2821302,"City","36.101822","-119.567986","NAD83","","","Martinez","CA","93212","",""
"06022044001",2864707,"City","37.974515","-122.531891","NAD83","","","Vail","CA","","",""
"06000000221",3610640,"City","37.557098","-122.278175","NAD83","","","Pleasant Hill","CA","","",""
"06009013001",1176044,"Point","32.864196","-116.921343","NAD83","10375 Vine St","","Lakeside","CA","92040","",""
"06025319001",2840122,"City","41.252105","-122.139387","NAD83","","","Westmorland","CA","96057","",""
"06000000284",3611408,"City","37.983716","-120.382690","NAD83","","","Cornwall","CA","","",""
"06002110001",1175349,"Point","37.383185","-122.114024","NAD83","10 Angela Dr","","Los Altos","CA","94022","",""
"06000000159",3609003,"State","36.17","-119.7462","NAD83","","","","CA","","",""
"06001017002",480835,"Point","38.424613","-122.956678","NAD83","5240 Bohemian Hwy","","Camp Meeker","CA","95419","",""
"06003026001",1175393,"Point","36.671310","-121.653500","NAD83","27 John St","","Salinas","CA","93901","",""
"06001168001",3477030,"Point","41.608","-122.839","NAD83","Scott River Road","","Fort Jones","CA","96032","",""
"06000000240",3611364,"City","39.527348","-122.183075","NAD83","","","Willimantic","CA","95988","",""
"06000000280",3611404,"City","39.148700","-121.782074","NAD83","","","Felton","CA","","",""
"06004010005",1175495,"Point","34.048677","-118.247566","NAD83","125 W 4th St","","Los Angeles","CA","90013","",""
"06008036001",1175991,"Point","33.743755","-118.104229","NAD83","","","Seal Beach","CA","90740","",""
"06005030001",1175552,"Point","36.96249","-120.06356","NAD83","","","Madera","CA","93637","",""
"06000000216",3610529,"City","37.298637","-120.476761","NAD83","","","Alamosa","CA","","",""
"06001050001",1175216,"Point","39.2247","-123.2039","NAD83","5681 N. State Street","","Calpella","CA","95418","",""
"06003004001",1175375,"Point","35.286685","-120.660095","NAD83","1250 Peach St","","San Luis Obispo","CA","93401","",""
"06005060004",1175582,"Point","39.1119","-122.9092","NAD83","230 A N. of Main Street","","Lakeport","CA","95453","",""
"06006033001",1175886,"Point","34.745","-117.3347","NAD83","NE Silver Lakes","","Helendale","CA","92342","",""
"06001096001",1175243,"Point","38.7060937","-122.8974918","NAD83","155 Hamilton Avenue","","Geyserville","CA","95441","",""
"06002042001",1175300,"Point","37.714814","-122.193031","NAD83","3000 Davis St","","San Leandro","CA","94577","",""
"06005045001",1175565,"Point","39.3344","-120.4025","NAD83","53823 SHERRITT LN","","Soda Springs","CA","95728","",""
"06005054001",1175573,"Point","38.291419","-121.278248","NAD83","10059 Twin Cities Road","11059 8404","Galt","CA","95632","",""
"06005322001",1175769,"Point","38.1247","-120.4631","NAD83","90 Big Trees Rd. ","Ste B","Murphys","CA","95247","",""
"06000000218",3610553,"City","38.805470","-123.013744","NAD83","","","Loyalton","CA","","",""
"06008083001",1176027,"Point","34.0478284","-117.24677","NAD83","25541 Barton Rd","","Loma Linda","CA","92354","",""
"06005490001",1175810,"Point","38.390110","-120.794678","NAD83","","","Sutter Creek","CA","95685","",""
"06005060003",1175581,"Point","39.075710","-123.024902","NAD83","Trail 24","","Lakeport","CA","95453","",""
"06000000261",3611385,"County","39.922376","-120.706787","NAD83","","","","CA","","06063","Plumas"
"06009021001",1176053,"Point","32.846928","-116.930215","NAD83","12130 Rockcrest Rd","","Lakeside","CA","92040","",""
"06000000256",3611380,"City","36.666216","-121.626892","NAD83","","","Salida","CA","93906","",""
"06000000258",3611382,"City","39.266816","-121.015091","NAD83","","","Cope","CA","95959","",""
"06000000287",3611411,"City","39.144973","-121.585007","NAD83","","","Woody","CA","95901","",""
"06000000283",3611407,"City","36.331722","-119.289551","NAD83","","","Seymour","CA","","",""
"06000000292",3612062,"City","33.83526","-116.5395","NAD83","","","Granite","CA","92262","",""
"06003048001",1175416,"Point","36.587328","-121.945217","NAD83","3101 Forest Lake","","Pebble Beach","CA","93953","",""
"06000000245",3611369,"County","36.295205","-119.782562","NAD83","","","","CA","","06031","Kings"
"06000000123",3608282,"Point","36.895684","-119.753122","NAD83","1660 E Copper Avneu","","Fresno","CA","93730","",""
"06000000209",3610185,"City","33.162271","-117.337418","NAD83","","","Lake Arrowhead","CA","","",""
"06000000236",3611360,"City","37.979386","-122.023516","NAD83","","","Mariposa","CA","94520","",""
"06002018001",1175277,"Point","37.434035","-121.899629","NAD83","","","Milpitas","CA","95035","",""
"06000000198",3609566,"County","37.763930","-122.238350","NAD83","","","","CA","","06001","Alameda"
"06008009001",1175958,"Point","34.011546","-117.687607","NAD83","Chino Ave","","Chino","CA","91710","",""
"06000000214",3610513,"Point","37.594376","-120.956383","NAD83","2126 E Whitmore Ave","","Ceres","CA","95307","",""
"06002157001",1175367,"Point","37.539950","-122.273540","NAD83","","","San Mateo","CA","94404","",""
"06000000219",3610609,"City","34.512215","-117.327118","NAD83","","","Rockfall","CA","92394","",""
"06008035001",1175990,"Point","33.731764","-116.896591","NAD83","26385 Fairview Ave, Hemet, CA 92544","","Hemet","CA","92544","",""
"06000000231",3611355,"County","38.694621","-119.763336","NAD83","","","","CA","","06003","Alpine"
"06000000243",3611367,"County","36.607811","-118.052216","NAD83","","","","CA","","06027","Inyo"
"06000000262",3611386,"County","33.979809","-117.339478","NAD83","","","","CA","","06065","Riverside"
"06005080001",1238817,"Point","37.634065","-120.766182","NAD83","335 South Western Waterford","","Waterford","CA","95386","",""
"06007011001",1238829,"Point","32.7364","-115.5251","NAD83","1184 ROCKWOOD AVENUE","","Heber","CA","92249","",""
"06000000156",3608954,"City","34.055788","-118.125515","NAD83","","","Broomfield","CA","","",""
"06000000244",3611368,"City","35.344255","-119.025879","NAD83","","","Granada Hills","CA","","",""
"06000000091",3607829,"Point","37.615506","-122.487860","NAD83","700 Coast Highway","","Pacifica","CA","94044","",""
"06008072001",1176018,"Point","33.712346","-117.955399","NAD83","","","Fountain Valley","CA","92708","",""
"06002104001",1175345,"Point","37.560228","-122.269185","NAD83","610 Foster City Blvd","","San Mateo","CA","94404","",""
"06008002001",1175946,"Point","33.621338","-117.919350","NAD83","","","Newport Beach","CA","92663","",""
"06000000254",3611378,"County","41.557922","-120.541992","NAD83","","","","CA","","06049","Modoc"
"06002122001",1175356,"Point","37.504960","-122.265816","NAD83","","","San Carlos","CA","94070","",""
"06000000192",3609417,"County","37.6816341","-121.7701012","NAD83","","","","CA","","06005","Amador"
"06002077001",1175338,"Point","37.490591","-122.230786","NAD83","555 County Center","","Redwood City","CA","94063","",""
"06005511004",3477631,"Point","37.4623","-119.9462","NAD83","5214-5252 Golden Chain Hwy","","Mariposa","CA","95338","",""
"06001062001",1175222,"Point","38.323612","-122.703896","NAD83","25 Kingston Way","","Cotati","CA","94931","",""
"06005100001",1175620,"Point","38.385804","-120.752106","NAD83","12800 Ridge Rd, Sutter Creek, CA 95685","","Jackson","CA","95642","",""
"06003069001",1175437,"Point","35.119909","-120.620956","NAD83","","","Grover Beach","CA","93433","",""
"06000000131",3608421,"Point","37.577514","-122.356222","NAD83","1600 Floribunda Ave","","Burlingame","CA","94010","",""
"06000000201",3609599,"Point","34.055219","-117.737732","NAD83","","","Pomona","CA","91768","",""
"06008065001",1176011,"Point","33.868705","-117.921410","NAD83","","","Fullerton","CA","92832","",""
"06000000168",3609128,"Point","34.0926672","-118.1271926","NAD83","111 S 1st St","","Alhambra","CA","91801","",""
"06000000241",3611365,"City","40.755580","-124.134521","NAD83","","","Paramount","CA","95501","",""
"06025146001",3534676,"City","37.7908","-121.21760","NAD83","","","Winterhaven","CA","95336","",""
"06002037001",1175295,"Point","37.67560","-122.45604","NAD83","","","Daly City","CA","94014","",""
"06021003001",2829441,"Point","40.735","-122.9411","NAD83","","","Weaverville","CA","96093","",""
"06008021001",1175975,"Point","34.064712","-117.647009","NAD83","200 N Cherry Ave","","Ontario","CA","91764","",""
"06000000121",3608175,"Point","33.668354","-117.320938","NAD83","","","Lake Elsinore","CA","92530","",""
"06008014001",1175964,"Point","33.670354","-117.988014","NAD83","","","Huntington Beach","CA","92646","",""
"06022003001",2844566,"City","37.974608","-122.562768","NAD83","","","Seibert","CA","94960","",""
"06000000255",3611379,"City","37.629460","-118.847351","NAD83","","","Wilton","CA","93546","",""
"06000000130",3608420,"City","37.5775188","-122.356228","NAD83","","","San Juan Bautista","CA","94010","",""
"06005147001",1175667,"Point","33.7525712","-117.9944085","NAD83","14451 Cedarwood St","","Westminster","CA","92683","",""
"06000000165",3609119,"Point","35.442684","-119.344783","NAD83","28970 7th Standard Rd","","Shafter","CA","93263","",""
"06008048001",1176002,"Point","33.925299","-117.952319","NAD83","621 W Lambert Rd","","La Habra","CA","90631","",""
"06000000247",3611371,"County","40.730608","-120.256348","NAD83","","","","CA","","06035","Lassen"
"06000000260",3611384,"County","38.773358","-121.245117","NAD83","","","","CA","","06061","Placer"
"06000000234",3611358,"County","38.259750","-120.311279","NAD83","","","","CA","","06009","Calaveras"
"06002034001",1175291,"Point","38.05367","-122.22316","NAD83","","","Crockett","CA","94525","",""
"06000000176",3609213,"Point","34.112942","-117.752495","NAD83","","","La Verne","CA","91750","",""
"06009018001",1176049,"Point","32.988220","-117.267380","NAD83","","","Solana Beach","CA","92075","",""
"06000000291",3611608,"City","37.398447","-122.08517","NAD83","","","Chimney Rock","CA","94035","",""
"06002061001",1175320,"Point","37.6920515","-122.4062472","NAD83","50 Park Place","","Brisbane","CA","94005","",""
"06008070001",1176016,"Point","33.806158","-118.0755","NAD83","","","Los Alamitos","CA","90720","",""
"06000000242",3611366,"City","32.794201","-115.530853","NAD83","","","Olivehurst","CA","92243","",""
"06000000265",3611389,"County","34.093610","-117.252960","NAD83","","","","CA","","06071","San Bernardino"
"06008039001",1175993,"Point","33.950800","-117.635980","NAD83","16756 Chino Corona Rd","","Corona","CA","92880","",""
"06005060001",1175579,"Point","39.075710","-122.978210","NAD83","","","Lakeport","CA","95453","",""
"06022018001",2838060,"City","37.421199072","-121.9007460","NAD83","","","Aurora","CA","95035","",""
"06000000157",3608995,"Point","37.005500","-121.569729","NAD83","","","Gilroy","CA","95020","",""
"06000000189",3609339,"City","38.242764","-121.989183","NAD83","","","Goshen","CA","","",""
"06005155001",1175673,"Point","35.309490","-119.000640","NAD83","2700 M Street, Suite 400","","Bakersfield","CA","93301-2370","",""
"06000000252",3611376,"City","39.162011","-123.197937","NAD83","","","Oneco","CA","95482","",""
"06005668001",1175843,"Point","38.084714","-120.56395","NAD83","","","Altaville","CA","95222","",""
"06002079001",3480210,"Point","37.462947","-122.43604","NAD83","","","Half Moon Bay","CA","94019","",""
"06001006001",1175172,"Point","40.752901","-124.1452634","NAD83","5055 walnut drive","","Eureka","CA","95503","",""
"06000000288",3611429,"City","34.405221","-119.52750","NAD83","","","Lakehead","CA","93013","",""
"06000000253",3611377,"County","37.300275","-120.465088","NAD83","","","","CA","","06047","Merced"
"06000000294",3612365,"Point","41.006589","-121.436369","NAD83","43185 Highway 299","","Fall River Mills","CA","96028","",""
"06000000295",3612367,"Point","39.365890","-121.696222","NAD83","800 Spruce St","","Gridley","CA","95948","",""
"06000000187",3609307,"City","32.833450","-117.129450","NAD83","","","Slater","CA","","",""
"06000000196",3609511,"City","34.034453","-118.168945","NAD83","","","Warner Springs","CA","","",""
"06000000087",3607695,"Point","38.011718","-122.285557","NAD83","304 Atlas Dr","","Hercules","CA","94547","",""
"06005139001",1175660,"Point","38.737513","-121.342079","NAD83","","","Roseville","CA","95747","",""
"06000000224",3610767,"City","37.475403","-122.139988","NAD83","","","Nuevo","CA","","",""
"06002049001",1175309,"Point","37.5408629","-122.510202","NAD83","","","Montara","CA","94037","",""
"06022174001",3009462,"Point","37.887793","-122.298260","NAD83","1093 Buchanan St","","Albany","CA","94706","",""
"06025053001",3154588,"Point","36.7574","-119.7065","NAD83","5469 E OLIVE","","Fresno","CA","93727","",""
"06005511003",3477617,"Point","37.479","-119.8991","NAD83","Carleton Rd","","Mariposa","CA","95338","",""
"06006020001",1175875,"Point","39.327966","-120.154029","NAD83","12418 Joerger Dr","","Truckee","CA","96161","",""
"06000000264",3611388,"County","36.854351","-121.386566","NAD83","","","","CA","","06069","San Benito"
"06009046001",1176084,"Point","32.953656","-117.257080","NAD83","","","Del Mar","CA","92014","",""
"06029031001",402846,"Point","32.7512","-117.1009","NAD83","SAN DIEGO CITY","","San Diego","CA","92101","",""
"06001055001",1175221,"Point","40.033702","-124.077229","NAD83","Lower Pacific Dr at Wave Dr","WINDSURF RD WHITEHORN CA 95589","Whitethorn","CA","95589","",""
"06002081001",1175339,"Point","37.591383","-122.088833","NAD83","5072 Benson Road","EBDA JOINT OUTFALL, ALAMEDA","Union City","CA","94587","",""
"06002125001",1175358,"Point","37.5446859","-122.2286944","NAD83","1400 RADIO ROAD","","Redwood City","CA","94065","",""
"06004010001",1175491,"Point","33.9308","-118.4349","NAD83","12000 VISTA DEL MAR BLVD","","Playa Del Rey","CA","90293","",""
"06005109001",1175641,"Point","37.9751218","-120.3925809","NAD83","Southgate Road","","Sonora","CA","95370","",""
"06005169001",1175684,"Point","38.7956","-121.7219","NAD83","County Road 116","","Knights Landing","CA","95645","",""
"06004009014",3482611,"Point","34.2114","-118.1797","NAD83","533 Meadow View Dr.","","La Canada Flintridge","CA","91001","",""
"06006009002",3522480,"Point","34.4243","-117.3192","NAD83","15776 Main Street","","Hesperia","CA","92345","",""
"06005244001",1175730,"Point","36.5797","-119.4654","NAD83","1295 W. Olson Avenue","","Reedley","CA","93662","",""
"06007025001",1175933,"Point","33.6566","-116.1453","NAD83","87-075 AVENUE 54","","Coachella","CA","92236","",""
"06005044001",1175564,"Point","37.525784","-120.795708","NAD83","3616 Santa Fe Ave","","Denair","CA","95316","",""
"06003038006",441073,"Point","37.031608","-122.03317","NAD83","","","Santa Cruz","CA","95060","",""
"06000000304",3612733,"Point","38.778109","-123.511562","NAD83","42455 State Highway 1","","Gualala","CA","95445","",""
"06022041002",470876,"Point","37.341230","-121.887131","NAD83","","","San Jose","CA","95112","",""
"06006001004",3483670,"Point","34.4063","-117.380421","NAD83","","","Hesperia","CA","92344","",""
"06006001003",3483576,"Point","34.48773","-117.261327","NAD83","","","Spring Valley","CA","92395","",""
"06005025003",1175547,"Point","37.895785","-121.251040","NAD83","5000 S Airport Way","","Stockton","CA","95206","",""
"06008018001",1175971,"Point","34.09849","-117.65591","NAD83","","","Upland","CA","91786","",""
"06008043001",1175997,"Point","33.719771","-118.074532","NAD83","Ocean Ave","","Huntington Beach","CA","90742","",""
"06000000308",3612879,"Point","34.001096","-118.154773","NAD83","","","Los Angeles","CA","90040","",""
"06005059001",1175578,"Point","37.557625","-120.913543","NAD83","5451 9th St","","Keyes","CA","95328","",""
"06012001110",3121108,"City","35.877454","-119.268050","NAD83","","","Norden","CA","93219","",""
"06000000311",3613059,"Point","34.334931","-119.083557","NAD83","920 Corporation St","","Santa Paula","CA","93060","",""
"06000000300",3612651,"Point","38.767168","-122.651238","NAD83","","","Middletown","CA","85461","",""
"06008077001",1176023,"Point","33.7432058","-117.8195226","NAD83","300 Centennial Way","","Tustin","CA","92780","",""
"06005076001",1175594,"Point","36.285164","-119.118972","NAD83","","","Visalia","CA","93221","",""
"06000000306",3612787,"Point","39.513800","-121.555738","NAD83","1977 Montgomery St","","Oroville","CA","95965","",""
"06025373001",3141043,"City","37.953394","-121.290650","NAD83","","","Fabyan","CA","95201","",""
"06003092001",397897,"Point","34.70898","-120.46757","NAD83","","","Mission Hills","CA","93436","",""
"06005358001",1175791,"Point","40.304555","-121.00402","NAD83","","","Westwood","CA","96137","",""
"06000000307",3612790,"Point","34.088422","-117.216482","NAD83","Pine Ave","","Redlands","CA","92374","",""
"06025266001",3233652,"City","36.802526","-120.016403","NAD83","","","Hickman","CA","93630","",""
"06001021001",1175190,"Point","38.4000862","-122.828751","NAD83","","","Sebastopol","CA","95472","",""
"06008003001",1175947,"Point","33.7847","-116.9671","NAD83","","","San Jacinto","CA","92581","",""
"06000000297",3612630,"State","36.17","-119.7462","NAD83","","","","CA","","",""
"06000000310",3612940,"Point","36.123594","-118.822889","NAD83","35140 Tule River","","Springville","CA","93265","",""
"06000000314",3613153,"Point","37.437691","-121.139116","NAD83","17840 Ward Ave, Patterson, CA 95363","","Patterson","CA","95363","",""
"06003039003",1175406,"Point","36.9937994","-121.8983674","NAD83","","","Aptos","CA","95003","",""
"06009030001",1176065,"Point","32.7385973","-116.9428787","NAD83","11937 Campo Rd","","Spring Valley","CA","91978","",""
"06005774001",1175850,"Point","38.004482","-121.33671","NAD83","","","Stockton","CA","95219","",""
"06006001002",3483573,"Point","34.5988220","-117.334881","NAD83","","","Oro Grande","CA","92368","",""
"06000000299",3612632,"State","36.17","-119.7462","NAD83","","","","CA","","",""
"06004037001",2833022,"Point","34.237765","-119.160805","NAD83","","","Oxnard","CA","93036","",""
"06005000001",3514617,"Point","39.563900","-121.522801","NAD83","1951 South River West, CA","","Sacramento","CA","95691","",""
"06002010001",1175271,"Point","37.320176","-121.93062","NAD83","","","San Jose","CA","95128","",""
"06000000309",3612938,"Point","38.694922","-119.776254","NAD83","14777 CA 89 Markleeville","","Markleeville","CA","96120","",""
"06006001001",1175854,"Point","34.241034","-117.075114","NAD83","","","Green Valley Lake","CA","92341","",""
"06001078001",1175231,"Point","39.126838","-123.2057454","NAD83","","","Ukiah","CA","95482","",""
"06002019001",1175278,"Point","37.354245","-121.954422","NAD83","1500 Warburton","","Santa Clara","CA","95050","",""
"06000000301",3612652,"Point","40.816749","-124.186449","NAD83","","","Eureka","CA","95564","",""
"06000000302",3612659,"Point","40.347092","-121.614844","NAD83","","","Mineral","CA","96063","",""
"06000000303",3612732,"Point","37.640675","-120.765324","NAD83","343 H St","","Waterford","CA","95386","",""
"06025121001",2860055,"City","38.393330","-120.802724","NAD83","","","Hanover","CA","95685","",""
"06000000313",3613126,"Point","34.400979","-119.511037","NAD83","1301 Santa Ynez Ave","","Carpinteria","CA","93013","",""
"06002158001",3484151,"Point","37.624922","-122.413552","NAD83","580 El Camino Real","","San Bruno","CA","94066","",""
"06004013001",1175500,"Point","34.165093","-118.821237","NAD83","","","Westlake Village","CA","91362","",""
"06000000296",3612541,"Point","41.530893","-124.042200","NAD83","101 Ehlers Ave","","Klamath","CA","95548","",""
"06003043001",1175410,"Point","35.554444","-120.709866","NAD83","700 Florence St","","Templeton","CA","93465","",""
"06005340001",1175776,"Point","39.308192","-120.38706","NAD83","7300 Short Rd","","Soda Springs","CA","95728","",""
"06005085001",1175606,"Point","39.51969914","-121.5752064","NAD83","","","Oroville","CA","95965","",""
"06000000305",3612766,"Point","39.814404","-121.581166","NAD83","13888 Pine Needle Dr","","Magalia","CA","95954","",""
"06022041001",3145304,"City","37.354603","-121.955152","NAD83","","","Vona","CA","95050","",""
"06012001102",3119409,"City","34.071884","-117.322730","NAD83","","","Manteca","CA","92324","",""
"06024008010",424998,"City","34.036658","-118.688296","NAD83","","","Wilseyville","CA","90265","",""
"06008010004",3486590,"Point","34.0862","-117.526","NAD83","12811 Sixth Street","","Rancho Cucamonga","CA","91729","",""
"06002045001",1175305,"Point","37.9496","-122.5468","NAD83","6 College Ct","","Larkspur","CA","94939","",""
"06002063001",1175322,"Point","37.8726463","-122.4508308","NAD83","2001 PARADISE DRIVE","","Belvedere Tiburon","CA","94920","",""
"06004022002",1175509,"Point","34.226310","-119.13438","NAD83","","","Oxnard","CA","92257","",""
"06005082007",1175602,"Point","37.9089","-120.6125","NAD83","423 East St. Charles Street","","San Andreas","CA","95249","",""
"06005099001",1175619,"Point","38.3440962","-120.775215","NAD83","39 NORTH HIGHWAY 49-88","WASTEWATER TREATMENT PLANT","Jackson","CA","95642","",""
"06005235001",1175722,"Point","38.3917","-121.8044","NAD83","6915 Pedrick Rd","","Dixon","CA","95620","",""
"06005693001",1175847,"Point","35.610488","-118.488370","NAD83","Elizabeth Norris Rd","","Lake Isabella","CA","93240","",""
"06008020001",1175973,"Point","33.8923","-117.6067","NAD83","2205 Railroad Street","755 CORPORATION YARD WAY","Corona","CA","92880","",""
"06009011001",1176042,"Point","33.1188","-117.3235","NAD83","6200 AVENIDA ENCINAS","","Carlsbad","CA","92011","",""
"06009040001",1176078,"Point","33.2527","-116.9954","NAD83","201 Vallecitos de Oro","","San Marcos","CA","92069","",""
"06005296001",3408470,"Point","39.7931","-120.6464","NAD83","200 Lundy Lane","","Blairsden-graeagle","CA","96103","",""
"06005019002",3478130,"Point","37.796017","-121.286530","NAD83","18800 Christopher Way","","Lathrop","CA","95330","",""
"06003027001",1175394,"Point","35.6486","-120.6879","NAD83","3200 SULPHUR SPRINGS RD","3400","Paso Robles","CA","93446","",""
"06008010005",3486593,"Point","33.9683","-117.6749","NAD83","6068 KIMBALL AVENUE, BUILDING ""C""","","Chino","CA","91708","",""
"06002043001",1175301,"Point","37.5694","-122.2966","NAD83","2050 DETROIT DRIVE","","San Mateo","CA","94404","",""
"06005178001",1175688,"Point","36.2756","-119.1603","NAD83","1906 West Myer Avenue","","Exeter","CA","93221","",""
"06007069001",1175944,"Point","33.6092","-114.7165","NAD83","17710 West Hobson Way","","Blythe","CA","92225","",""
"06008012001",1175963,"Point","33.9314","-116.9872","NAD83","715 W 4TH ST","","Beaumont","CA","92223","",""
"06002034002",1175292,"Point","38.0571","-122.2197","NAD83","830 LORING AVENUE","","Crockett","CA","94525","",""
"06002047001",1175307,"Point","38.0841973","-122.2617489","NAD83","450 RYDER STREET","","Vallejo","CA","94590","",""
"06003008001",1175377,"Point","37.0411","-122.0269","NAD83","700 LUNDY LANE","SCOTTS VALLEY WWTF","Scotts Valley","CA","95066","",""
"06003063001",1175430,"Point","36.852428","-121.441841","NAD83","2690 San Juan Rd","of the San Benito River","Hollister","CA","95023","",""
"06005071001",1175590,"Point","36.5179","-119.5874","NAD83","11301 E Conejo Ave","","Kingsburg","CA","93631","",""
"06001038001",1175204,"Point","38.319303","-123.034558","NAD83","265 Doran Park Rd","","Bodega","CA","94923","",""
"06002072001",1175334,"Point","37.8433","-122.4775","NAD83","1 EAST ROAD","#1 FORT BAKER ROAD","Sausalito","CA","94965","",""
"06005161001",1175679,"Point","37.4789","-119.9598","NAD83","4956 MILLER RD","","Mariposa","CA","95338","",""
"06005204001",1175707,"Point","41.1836","-122.2842","NAD83","1100 SOUTH FIRST STREET","DUNSMUIR WWTP","Dunsmuir","CA","96025","",""
"06005266001",1175745,"Point","36.799389","-120.027051","NAD83","4499 N Howard Ave","","Biola","CA","93606","",""
"06001028001",1175196,"Point","39.439025","-123.814722","NAD83","101 WEST CYPRESS ST","W. OF OAK ST","Fort Bragg","CA","95437","",""
"06002123001",1175357,"Point","37.6216","-122.3996","NAD83","676 MCDONNELL ROAD","PO BOX 8097","San Francisco","CA","94128","",""
"06004016001",1175503,"Point","33.344260","-118.322239","NAD83","123 Pebbly Beach Road","","Avalon","CA","90704","",""
"06005038001",1175558,"Point","37.3306","-119.5692","NAD83","40477-40699 Road 274","","Bass Lake","CA","93604","",""
"06005082004",1175601,"Point","38.3324","-120.2561","NAD83","Forest Route 6N58","","Arnold","CA","95375","",""
"06005082020",1175605,"Point","38.3791","-120.4534","NAD83","6271-6279 Schaad Rd","","Wilseyville","CA","95257","",""
"06005186001",1175695,"Point","37.7142","-121.0867","NAD83","4908 Ellington Ct","","Salida","CA","95368","",""
"06005349001",1175784,"Point","35.969949","-119.044590","NAD83","9832 Road 238, CA","","Terra Bella","CA","93270","",""
"06008041002",1175996,"Point","33.6808","-117.3409","NAD83","14980 STRICKLAND AVE","","Lake Elsinore","CA","92530","",""
"06009012001",1176043,"Point","33.0809","-116.6174","NAD83","2840 Hwy 78 92036","","Julian","CA","92036","",""
"06009031004",1176069,"Point","32.544552","-117.070688","NAD83","2411 Dairy Mart Road","","San Diego","CA","92154","",""
"06002032005",443709,"Point","37.7284","-122.5063","NAD83","3500 GREAT HIGHWAY","","San Francisco","CA","94132-1000","",""
"06001079001",1175232,"Point","39.1123","-123.1892","NAD83","300 PLANT ROAD","300 SEMINARY AVE.","Ukiah","CA","95482-5400","",""
"06005008001",1175528,"Point","36.2983","-119.6489","NAD83","10555 Houston Ave,","","Hanford","CA","93230","",""
"06005028001",1175550,"Point","37.7314","-121.1331","NAD83","259 North Wilma Avenue","","Ripon","CA","95366","",""
"06005261001",1175742,"Point","35.978909","-120.114727","NAD83","100 Effluent Way, Avenal, CA","","Avenal","CA","93204","",""
"06009031002",1176067,"Point","32.8813","-117.1989","NAD83","4950 Eastgate Mall","","San Diego","CA","92121","",""
"06003060001",1175427,"Point","36.9890709","-121.5344416","NAD83","1500 Southside Drive","","Gilroy","CA","95020","",""
"06005074001",1175592,"Point","37.5194","-120.4522","NAD83","15730 North Hwy 59","","Snelling","CA","95369","",""
"06005780001",1175851,"Point","41.121754","-121.142184","NAD83","300 Bridge Street","","Bieber","CA","96009","",""
"06005347001",1175782,"Point","35.1489","-119.4264","NAD83","1120 East Ash Street","","Taft","CA","93268","",""
"06005681001",1175845,"Point","39.2348","-121.2187","NAD83","12622 PLEASANT VALLEY ROAD","","Penn Valley","CA","95946","",""
"06007019001",1175928,"Point","33.0323","-115.6301","NAD83","5305 MARTIN ROAD","","Westmorland","CA","92281","",""
"06007041001",1175940,"Point","33.9781","-117.3739","NAD83","25871 NEIGHBOURS blvd","","Palo Verde","CA","92272","",""
"06005094001",1238819,"Point","38.4939","-120.8886","NAD83","Old Sacramento Rd. two miles west of ","downtown","Plymouth","CA","95669","",""
"06002041001",1175299,"Point","37.433806","-121.944809","NAD83","700 Los Esteros Road","","San Jose","CA","95134","",""
"06002155001",1175365,"Point","37.8962281","-122.5267994","NAD83","450 SYCAMORE AVENUE","","Mill Valley","CA","94941","",""
"06003049001",1175417,"Point","34.8925","-120.5039","NAD83","3500 Black Rd.","","Santa Maria","CA","93455","",""
"06003072001",1175440,"Point","34.9594","-120.6258","NAD83","515 West Main Street","","Guadalupe","CA","93434","",""
"06005145001",1175665,"Point","39.0431","-122.9139","NAD83","795 Linda Ln","","Lakeport","CA","95453","",""
"06007022001",1175930,"Point","33.016149","-115.517775","NAD83","5015 Best Road","1550 BEST ROAD","Brawley","CA","92227","",""
"06024017001",3517761,"City","34.398412","-118.912357","NAD83","","","Phillipsville","CA","93015","",""
"06001020001",1175189,"Point","40.4975","-124.0956","NAD83","475 HILLTOP AVENUE","","Rio Dell","CA","95562","",""
"06001035001",1175201,"Point","38.7962843","-123.0104353","NAD83","700 ASTI ROAD","","Cloverdale","CA","95425","",""
"06003044001",1175412,"Point","36.886966","-121.785116","NAD83","401 Panabaker Lane","","Watsonville","CA","95076","",""
"06003115001",1175455,"Point","36.8167","-121.3647","NAD83","3570 Airline Highway","","Hollister","CA","95023","",""
"06005010002",1175531,"Point","35.2758","-119.0742","NAD83","8101 Ashe Road","","Bakersfield","CA","93313","",""
"06005118001",1175649,"Point","35.7988","-119.1042","NAD83","20932 Grove Dr","","Richgrove","CA","93261","",""
"06005233001",1175721,"Point","39.0899518","-120.9462555","NAD83","23550 GRANDVIEW AVENUE","WWTP","Colfax","CA","95713","",""
"06005240001",1175727,"Point","41.4733","-120.558","NAD83","20099 County Road 54","","Alturas","CA","96101","",""
"06005325001",1175771,"Point","39.7458","-122.1942","NAD83","815 Fourth St","","Orland","CA","95963","",""
"06001085001",1175236,"Point","41.8883","-121.3711","NAD83","405 5th Avenue","","Tulelake","CA","96134","",""
"06003030001",1175398,"Point","35.567","-121.104","NAD83","5500 Heath Lane"," ","Cambria","CA","93428","",""
"06004009002",1175478,"Point","34.0557","-117.7903","NAD83","295 HUMANE WAY","","Pomona","CA","91766","",""
"06006027001",1175883,"Point","38.2639","-119.0956","NAD83","233 Twin Lakes Road","","Bridgeport","CA","93517","",""
"06008019001",1175972,"Point","34.0018","-117.0761","NAD83","880 WEST COUNTY LINE ROAD","","Yucaipa","CA","92399","",""
"06009065001",2948926,"Point","33.2019","-116.9675","NAD83","18218 Paradise Mtn. RD","","Valley Center","CA","92082","",""
"06002006001",1175267,"Point","37.6894","-121.9147","NAD83","7399 JOHNSON DRIVE","","Pleasanton","CA","94588","",""
"06002015001",1175274,"Point","37.8967","-122.5274","NAD83","450 Sycamore Ave","","Mill Valley","CA","94941","",""
"06002036001",1175294,"Point","37.8232","-122.2976","NAD83","2020 WAKE AVENUE","","Oakland","CA","94607","",""
"06005018001",1175539,"Point","39.80548","-120.47149","NAD83","120 MAIN STREET","","Portola","CA","96122","",""
"06005057001",1175576,"Point","38.155","-121.6114","NAD83","210 Jackson Blvd","","Isleton","CA","95641","",""
"06005082016",1175604,"Point","38.3758","-120.478","NAD83","5157 Blue Mountain Rd","","Wilseyville","CA","95257","",""
"06005329001",1175773,"Point","38.7308","-120.8467","NAD83","2300 COOLWATER CREEK ROAD","","Placerville","CA","95667","",""
"06008010006",3486596,"Point","34.0133","-117.3556","NAD83","14950 TELEPHONE AVENUE","","Chino","CA","91710","",""
"06002032002",1175288,"Point","37.7403","-122.3903","NAD83","750 PHELPS STREET","","San Francisco","CA","94124-1091","",""
"06002038001",1175296,"Point","38.2203","-122.0803","NAD83","1010 CHADBOURNE RD","","Fairfield","CA","94534","",""
"06003050001",1175418,"Point","34.662473","-120.481245","NAD83","1801 WEST CENTRAL AVE","","Lompoc","CA","93436","",""
"06005006001",1175527,"Point","35.7172","-119.2761","NAD83","12941 Melcher Rd","","Mc Farland","CA","93250","",""
"06025061001",2888833,"City","37.9875","-122.0874","NAD83","","","Ione","CA","94513","",""
"06022047001",427722,"Point","38.101604","-122.255859","NAD83","Indian Aly","1995 MARKET STREET RIVERSIDE","Vallejo","CA","94590","",""
"06001082001",1175233,"Point","38.5824","-122.8695","NAD83","340 Foreman Lane","","Healdsburg","CA","95448","",""
"06002033001",1175290,"Point","38.2356096","-122.2843624","NAD83","1515 SOSCOL FERRY ROAD","NAPA SD WWTP 935 HARTLE COURT","Napa","CA","94558","",""
"06003053001",1175421,"Point","34.4208504","-119.650533","NAD83","1042 MONTE CRISTO LANE","","Santa Barbara","CA","93108","",""
"06005123001",1175654,"Point","35.9425","-119.7719","NAD83","2000 Racine","","Kettleman City","CA","93239","",""
"06005236001",1175723,"Point","38.523014","-121.966685","NAD83","201 East St","","Winters","CA","95694","",""
"06005345001",1175781,"Point","36.1436","-119.0719","NAD83","1333 W Grand Ave","","Porterville","CA","93257","",""
"06006031001",1175885,"Point","40.3084","-120.7117","NAD83","West of Boron","","Boron","CA","93516","",""
"06008016003",1175969,"Point","33.9318","-117.6046","NAD83","14634 RIVER ROAD","","Corona","CA","92880-9606","",""
"06009080001",392614,"Point","33.0674","-117.2479","NAD83","16595 Dove Canyon Rd","","San Diego","CA","92127","",""
"06005061001",1238816,"Point","37.9579278","-121.6885454","NAD83","2251 ELKINS WAY","","Brentwood","CA","94513","",""
"06002125002",3509618,"Point","37.5428","-122.2311","NAD83","1400 RADIO ROAD","","Redwood City","CA","94065","",""
"06003042001",1175409,"Point","34.4202","-119.5982","NAD83","2435 WALLACE AVE","","Summerland","CA","93067","",""
"06004008010",1175469,"Point","34.036320","-118.698617","NAD83","24000 Civic Center Way","","Malibu","CA","90265","",""
"06005023002",1175544,"Point","40.465429","-122.276266","NAD83","3701 Rupert Road","","Anderson","CA","96007","",""
"06005121001",1175652,"Point","38.39","-120.8","NAD83","18 Main Sutter Creek, CA","","Sutter Creek","CA","95685","",""
"06007013001",1175921,"Point","32.8257","-115.4297","NAD83","1250 KAMM RD","","Holtville","CA","92250","",""
"06002118001",1175353,"Point","38.2334","-122.6226","NAD83","3890 CYPRESS DRIVE","","Petaluma","CA","94954","",""
"06005357001",1175790,"Point","39.0070413","-121.4231901","NAD83","800 Malone Ave","","Wheatland","CA","95692","",""
"06009031001",1176066,"Point","32.6667","-117.2434","NAD83","1902 GATCHELL ROAD","","San Diego","CA","92101","",""
"06009074001",1176093,"Point","33.5967","-117.6558","NAD83","27142 E La Paz Road,","","Mission Viejo","CA","92693","",""
"06005040001",1175560,"Point","38.884569","-121.108174","NAD83","10441 Ophir Road","","Auburn","CA","95603","",""
"06005187001",1175696,"Point","38.058687","-120.540614","NAD83","3000 Centennial Road","","Angels Camp","CA","95222","",""
"06005197001",1175701,"Point","36.9622","-120.0636","NAD83","13048 Road 21 1/2","","Madera","CA","93637","",""
"06005315002",1175764,"Point","37.389663","-120.744896","NAD83","7160 North Gallo Road","","Livingston","CA","95334","",""
"06005421001",1175804,"Point","39.0407","-121.0669","NAD83","10903 RIATA WAY","","Auburn","CA","95602","",""
"06008033001",1175988,"Point","33.6707","-117.8348","NAD83","3512 MICHELSON DRIVE","","Irvine","CA","92612","",""
"06003076001",1175443,"Point","37.0172","-121.5603","NAD83","1500 Southside Drive","","Gilroy","CA","95020","",""
"06004006001",1175461,"Point","34.24","-119.2612","NAD83","1400 SPINNAKER DRIVE","","Ventura","CA","93002-0099","",""
"06004027001",1175513,"Point","34.141610","-119.185739","NAD83","6001 Perkins Rd","","Oxnard","CA","93033","",""
"06005086001",1175607,"Point","36.601","-119.5189","NAD83","1100 E Parlier Ave","","Parlier","CA","93648","",""
"06005253001",1175738,"Point","38.1453","-121.6954","NAD83","1000 BEACH DRIVE","","Rio Vista","CA","94571","",""
"06006041001",1175894,"Point","34.8753","-118.1503","NAD83","1460 10th Street West","Outside the City of Rosamond","Rosamond","CA","93560","",""
"06007023001",1175931,"Point","32.8255","-115.5054","NAD83","380 EAST ATEN ROAD","IMPERIAL CCD WWTP","Imperial","CA","92251","",""
"06008007001",1175956,"Point","34.267733","-116.815846","NAD83","199 Palomino Dr","","Big Bear City","CA","92314","",""
"06008052001",1176004,"Point","34.0559","-117.3613","NAD83","501 EAST SANTA ANA AVENUE","","Bloomington","CA","92316","",""
"06001027001",1175195,"Point","39.418094","-123.346510","NAD83","300 N. Lenore Street","","Willits","CA","95490","",""
"06001042001",1175207,"Point","41.747174","-122.628493","NAD83","856 North Main Street","","Yreka","CA","96097","",""
"06005107001",1175639,"Point","37.577631","-120.974380","NAD83","4200 Morgan Rd","","Ceres","CA","95307","",""
"06005282001",1175749,"Point","39.014857","-122.655133","NAD83","13705 Jensen Rd","","Clearlake Oaks","CA","95423","",""
"06005607001",1175831,"Point","36.178","-119.3685","NAD83","18453 Avenue 144","","Porterville","CA","93258","",""
"06008022001",1175976,"Point","33.692","-117.939","NAD83","10844 ELLIS AVENUE","22212 BROOKHURST STREET, HUNTINGTON BEACH","Fountain Valley","CA","92708","",""
"06001007001",1175174,"Point","40.882866","-123.996109","NAD83","Chartin Road and Rancheria Road","","Blue Lake","CA","95525","",""
"06005014001",1175536,"Point","37.7178","-120.2025","NAD83","4850 Mary Harrison Mine rd.","","Coulterville","CA","95338","",""
"06005200001",1175704,"Point","39.2598","-121.0308","NAD83","650 JORDAN STREET","","Nevada City","CA","95959","",""
"06005366001",1175793,"Point","39.683","-120.254","NAD83","403 Poole Lane","","Loyalton","CA","96118","",""
"06006049001",1175898,"Point","35.0517","-118.1719","NAD83","15844 K St","","Mojave","CA","93501","",""
"06005294001",3478111,"Point","39.8076607","-120.4630672","NAD83","73821 Milk Weed Dr","GRIZZLY LAKE RESORT IMPROVEMENT DISTRICT","Beckwourth","CA","96129","",""
"06005283001",3106372,"Point","38.7976248","-122.5537574","NAD83","19400 Hartmann Rd.","","Hidden Valley Lake","CA","95467","",""
"06001009001",1175176,"Point","38.4713","-122.8894","NAD83","6194 FORESTVILLE STREET","PACKING HOUSE  RD","Forestville","CA","95436","",""
"06005032001",1175554,"Point","36.399800","-119.100777","NAD83","811 South Valencia","","Woodlake","CA","93286","",""
"06005055001",1175574,"Point","37.5693093","-121.1887016","NAD83","8154 River Rd","","Patterson","CA","95363","",""
"06005143001",1175664,"Point","37.409829","-120.750647","NAD83","8668 Pinewood St","","Delhi","CA","95315","",""
"06005367001",1175794,"Point","36.6786","-119.7447","NAD83","3749 SOUTH MAPLE AVENUE","","Fresno","CA","93725","",""
"06005234001",1238821,"Point","38.8972","-121.3272","NAD83","1245 FIDDYMENT ROAD","","Lincoln","CA","95648","",""
"06007770001",3522264,"Point","34.1238589","-116.4180866","NAD83","57090 Twentynine Palms Highway","Ave. and Sunnyslope Drive","Yucca Valley","CA","92284","",""
"06012001081",3088272,"City","33.43471","-117.6278","NAD83","","","Silverton","CA","92672","",""
"06000000298",3612631,"State","36.17","-119.7462","NAD83","","","","CA","","",""
"06004011008",1175496,"Point","34.149708","-119.195105","NAD83","250 North Ventura Port","","Port Hueneme","CA","93041","",""
